location,id,IdLugar,Nombre,Descripcion,Direccion,Municipio,Estado,Facebook,homepage,Latitud,Longitud,websitecontact,Categoria,Genero,Fecha,Hora,Lugar
Ciudad de México,1afzaougkdldlqa,KovZpZA6EkkA,El Gran Show en Vivo de Bely y Beto VIP,null,Paseo de la Reforma # 50 Col Polanco V Sección,Ciudad de México,Distrito Federal,null,null,19.424648,-99.19484,https://www.ticketmaster.com.mx/el-gran-show-en-vivo-de-ciudad-de-mexico-distrito-federal-10-24-2021/event/14005836EB0EB745,Miscellaneous,Family,2021-10-24,17:00:00,Auditorio Nacional
Ciudad de México,1afzaougkdlydlf,KovZpZA6EkkA,El Gran Show en Vivo de Bely y Beto,null,Paseo de la Reforma # 50 Col Polanco V Sección,Ciudad de México,Distrito Federal,null,null,19.424648,-99.19484,https://www.ticketmaster.com.mx/el-gran-show-en-vivo-de-ciudad-de-mexico-distrito-federal-10-24-2021/event/14005836EBE7B7D4,Miscellaneous,Family,2021-10-24,17:00:00,Auditorio Nacional
Ciudad de México,1av8zpagkv8rf3x,KovZpZA6EkkA,El Gran Show en Vivo de Bely y Beto VIP,null,Paseo de la Reforma # 50 Col Polanco V Sección,Ciudad de México,Distrito Federal,null,null,19.424648,-99.19484,https://www.ticketmaster.com.mx/el-gran-show-en-vivo-de-ciudad-de-mexico-distrito-federal-10-24-2021/event/1400585D10BD44A2,Miscellaneous,Family,2021-10-24,13:00:00,Auditorio Nacional
Ciudad de México,1av8zpagkvomvpq,KovZpZA6EkkA,El Gran Show en Vivo de Bely y Beto,null,Paseo de la Reforma # 50 Col Polanco V Sección,Ciudad de México,Distrito Federal,null,null,19.424648,-99.19484,https://www.ticketmaster.com.mx/el-gran-show-en-vivo-de-ciudad-de-mexico-distrito-federal-10-24-2021/event/1400585D11BB459A,Miscellaneous,Family,2021-10-24,13:00:00,Auditorio Nacional
Estado de México,g5v8zpnlrta_r,KovZpZAEvAnA,La vaca Lola,null,"Av. Jesús del Monte #41,  ",Estado de México,Estado de México,null,null,19.3770504,-99.2959213,https://www.ticketmaster.com.mx/la-vaca-lola-estado-de-mexico-estado-de-mexico-11-06-2021/event/14005AAAEFFC566F,Miscellaneous,Family,2021-11-06,13:00:00,Teatro del Parque Interlomas
Estado de México,g5v8zpnlyvaqe,KovZpZAEvAnA,La vaca Lola,null,"Av. Jesús del Monte #41,  ",Estado de México,Estado de México,null,null,19.3770504,-99.2959213,https://www.ticketmaster.com.mx/la-vaca-lola-estado-de-mexico-estado-de-mexico-11-06-2021/event/14005AAAF0045682,Miscellaneous,Family,2021-11-06,18:30:00,Teatro del Parque Interlomas
Estado de México,g5v8zpnlyva_t,KovZpZAEvAnA,La vaca Lola,null,"Av. Jesús del Monte #41,  ",Estado de México,Estado de México,null,null,19.3770504,-99.2959213,https://www.ticketmaster.com.mx/la-vaca-lola-estado-de-mexico-estado-de-mexico-11-06-2021/event/14005AAAF004567F,Miscellaneous,Family,2021-11-06,16:00:00,Teatro del Parque Interlomas
Estado de México,g5v8zpnlyv4qv,KovZpZAEvAnA,La vaca Lola,null,"Av. Jesús del Monte #41,  ",Estado de México,Estado de México,null,null,19.3770504,-99.2959213,https://www.ticketmaster.com.mx/la-vaca-lola-estado-de-mexico-estado-de-mexico-11-07-2021/event/14005AAAF00556B4,Miscellaneous,Family,2021-11-07,13:30:00,Teatro del Parque Interlomas
Estado de México,g5v8zpnlyv4qt,KovZpZAEvAnA,La vaca Lola,null,"Av. Jesús del Monte #41,  ",Estado de México,Estado de México,null,null,19.3770504,-99.2959213,https://www.ticketmaster.com.mx/la-vaca-lola-estado-de-mexico-estado-de-mexico-11-07-2021/event/14005AAAF00556A9,Miscellaneous,Family,2021-11-07,11:00:00,Teatro del Parque Interlomas
Estado de México,g5v8zpnlyvpqd,KovZpZAEvAnA,La vaca Lola,null,"Av. Jesús del Monte #41,  ",Estado de México,Estado de México,null,null,19.3770504,-99.2959213,https://www.ticketmaster.com.mx/la-vaca-lola-estado-de-mexico-estado-de-mexico-11-07-2021/event/14005AAAF00656BB,Miscellaneous,Family,2021-11-07,16:00:00,Teatro del Parque Interlomas
México,1av8zp6gktt1zrq,KovZpZAJt17A,"Un Cuento de Navidad, el señor Scrooge","Scrooge, un hombre, insensible y solitario, consumido por el apego a las riquezas, será visitado por tres espíritus que le mostrarán la realidad de las navidades pasadas, presentes y futuras. Incrédulo al principio, Scrooge se dará cuenta de lo miserable que ha sido su existencia y el desolado porvenir que le espera, por lo que decide cambiar.",Calz.de Guadalupe #497 Col. Estrella,México,Distrito Federal,null,null,19.4757404,-99.1206207,https://www.ticketmaster.com.mx/un-cuento-de-navidad-el-senor-mexico-distrito-federal-12-27-2021/event/1400587A7F280BDA,Miscellaneous,Family,2021-12-27,14:00:00,Teatro Tepeyac
Zapopan,g5v8zpilmqfb5,KovZpZAEdtaA,"HAGAMOS TU MUNDO JUNTOS, La Conferencia","Si conoces los fundamentos para construir tu vida puedes elegir deliberadamente la dirección y abrir el panorama para contemplar ¿Qué más es posible? En este espacio de reflexión te acompañamos a distinguir las coordenadas para orientar tu vida a la máxima expresión de sentido, propósito, dicha y prosperidad. Creándote con consciencia, eres también una contribución para otros. ¡Vamos a hacerlo: ¡Juntos!",Avenida Central 375,Zapopan,Jalisco,null,null,20.726205,-103.430352,https://www.ticketmaster.com.mx/hagamos-tu-mundo-juntos-la-conferencia-zapopan-jalisco-08-01-2021/event/14005ACAF775460B,Miscellaneous,Family,2021-08-01,12:00:00,Teatro Jose Pablo Moncayo - PALCCO
Estado de México,g5v8zplp6jgiy,KovZpZAEvAnA,Lucha libre Tinieblas Jr/Alushe H v. H. de máscara año 2000 Luzbel Jr,"La Federación Universal de Lucha Libre se presentará por primera vez en el Coloso de Interlomas, el cual será escenario perfecto para sorprenderse con los lances de las estrellas del pancracio que harán las delicias del público. La eterna batalla entre el bien y el mal vivirá un nuevo capítulo cuando los grandes representantes de la lucha libre mexicana se citen para disputar el nuevo y cotizado Campeonato por el Cinturón Interlomas.","Av. Jesús del Monte #41,  ",Estado de México,Estado de México,null,null,19.3770504,-99.2959213,https://www.ticketmaster.com.mx/lucha-libre-tinieblas-jralushe-h-v-estado-de-mexico-estado-de-mexico-07-10-2021/event/14005AB587735A39,Sports,Boxing,2021-07-10,19:30:00,Teatro del Parque Interlomas
México,1av8zp7gksaz11f,KovZpZA6JlaA,Grada Boxes G10 + Speed Lounge Amarilla Formula 1,"$ 33,605 + Cargo por servicio. Sky Boxes Grada 10 están ubicados en una de las zonas más emocionantes de la pista, palcos techados en la zona más alta de las gradas, el mejor lugar para disfrutar la emoción de los rebases en curvas, además contarán con el servicio de alimentos y bebidas dentro del Speed Lounge de zona amarilla.",Viaducto Piedad y Río Churubusco s/n Cd. Deportiva,México,Distrito Federal,null,null,19.402829,-99.089247,https://www.ticketmaster.com.mx/grada-boxes-g10-speed-lounge-amarilla-mexico-distrito-federal-10-29-2021/event/1400584CC5E0A294,Sports,Motorsports/Racing,2021-10-29,null,Autodromo Hnos. Rodriguez
México,1kazv9jzga1dgo8,KovZpZA6JlaA,Zona para Personas con Discapacidad Formula 1,"$1,500 + Cargo por servicio En este inmueble existen boletos disponibles para personas con discapacidad. Te recordamos que estas localidades son únicamente para personas con discapacidad y los boletos no son transferibles.Puedes adquirirlos a través de internet , taquilla y teléfonos que te damos a continuación para atenderte adecuadamente. Número de teléfono Centro telefónico (55) 53259000 opción 3 Horario: De lunes a sábado 10:00 a 19:00 hrs, domingos y días festivos 11:00 a 18:00 hrs. Los boletos están disponibles en la zona verde y azul . Limite de boletos 2.",Viaducto Piedad y Río Churubusco s/n Cd. Deportiva,México,Distrito Federal,null,null,19.402829,-99.089247,https://www.ticketmaster.com.mx/zona-para-personas-con-discapacidad-formula-mexico-distrito-federal-10-29-2021/event/140057980AECC810,Sports,Motorsports/Racing,2021-10-29,null,Autodromo Hnos. Rodriguez
México,g5v8zpnefosev,KovZpZA6JlaA,"Grada 02, Formula 1 Gran Premio de la Ciudad de México 2021","$ 24,800 + Cargo por servicio. La mejor zona y grada del circuito, desde aquí podrás disfrutar de los momentos más icónicos como la ceremonial inaugural, el arranque de los monoplazas, la bandera a cuadros y las paradas de pits.",Viaducto Piedad y Río Churubusco s/n Cd. Deportiva,México,Distrito Federal,null,null,19.402829,-99.089247,https://www.ticketmaster.com.mx/grada-02-formula-1-gran-premio-mexico-distrito-federal-10-29-2021/event/14005A39C88339C1,Sports,Motorsports/Racing,2021-10-29,null,Autodromo Hnos. Rodriguez
México,g5v8zpnez-ohd,KovZpZA6JlaA,"Grada 01, Formula 1 Gran Premio de la Ciudad de México 2021","$24,800 + Cargo por servicio. La mejor zona y grada del circuito, desde aquí podrás disfrutar de los momentos más icónicos como la ceremonia inaugural, el arranque de los monoplazas, la bandera a cuadros y las paradas de pits.",Viaducto Piedad y Río Churubusco s/n Cd. Deportiva,México,Distrito Federal,null,null,19.402829,-99.089247,https://www.ticketmaster.com.mx/grada-01-formula-1-gran-premio-mexico-distrito-federal-10-29-2021/event/14005A39C0851F03,Sports,Motorsports/Racing,2021-10-29,null,Autodromo Hnos. Rodriguez
Ciudad de México,16fza-xviza8uee2,KovZpZA6EkkA,A-ha.,"La agrupación de origen noruego, a-ha, se presentará en el Auditorio Nacional con su tour Hunting High and Low Live que tiene como objetivo interpretar todos los temas de su álbum debut del mismo nombre. La cita es el próximo 22 de septiembre. Los boletos estarán disponibles en preventa Citibanamex el 17 y 18 de marzo a través de ticketmaster.com.mx; y un día después estarán disponibles al público en general en las taquillas del inmueble y a través del sistema Ticketmaster. La banda formada por el vocalista y compositor Morten Harket y por los guitarristas y compositores Paul Waaktaar Savoy y Magne Furuholmen surgió en la década de los 80. Es una de las más emblemáticas del synth pop y también del rock alternativo de esa época. La actual gira está hecha para celebrar el 35 aniversario del lanzamiento de la versión original de Take On Me publicada en el Reino Unido el 19 de octubre de 1984.",Paseo de la Reforma # 50 Col Polanco V Sección,Ciudad de México,Distrito Federal,null,null,19.424648,-99.19484,https://www.ticketmaster.com.mx/aha-ciudad-de-mexico-distrito-federal-08-11-2021/event/14005862068FC11E,Music,Rock,2021-08-11,20:30:00,Auditorio Nacional
Ciudad de México,16v8zpkf6g7sg7l,KovZpZA6EkkA,A-ha (Preferente general de pie).,"La agrupación de origen noruego, a-ha, se presentará en el Auditorio Nacional con su tour Hunting High and Low Live que tiene como objetivo interpretar todos los temas de su álbum debut del mismo nombre. La cita es el próximo 22 de septiembre. Los boletos estarán disponibles en preventa Citibanamex el 17 y 18 de marzo a través de ticketmaster.com.mx; y un día después estarán disponibles al público en general en las taquillas del inmueble y a través del sistema Ticketmaster. La banda formada por el vocalista y compositor Morten Harket y por los guitarristas y compositores Paul Waaktaar Savoy y Magne Furuholmen surgió en la década de los 80. Es una de las más emblemáticas del synth pop y también del rock alternativo de esa época. La actual gira está hecha para celebrar el 35 aniversario del lanzamiento de la versión original de Take On Me publicada en el Reino Unido el 19 de octubre de 1984.",Paseo de la Reforma # 50 Col Polanco V Sección,Ciudad de México,Distrito Federal,null,null,19.424648,-99.19484,https://www.ticketmaster.com.mx/aha-preferente-general-de-pie-ciudad-de-mexico-distrito-federal-08-11-2021/event/1400586207C4C12B,Music,Rock,2021-08-11,20:30:00,Auditorio Nacional
Ciudad de México,16fzark-gzac7dk6,KovZpZA6EtdA,Airbag,"La agrupación de rock argentino Airbag, integrada por los hermanos Patricio, Gastón y Guido Sardelli, anuncia su regreso a la Ciudad de México. La fecha pactada para esta nueva travesía musical, que servirá como marco perfecto para la presentación de su nuevo disco será el próximo sábado 6 de junio en el Lunario del Auditorio Nacional. La preventa Citibanamex se realizará el 20 de diciembre.",Costado poniente del Auditorio Nacional frente al Campo,Ciudad de México,Distrito Federal,[{'url': 'https://www.facebook.com/AIRBAG.OFICIAL'}],null,19.424682,-99.1954,https://www.ticketmaster.com.mx/airbag-ciudad-de-mexico-distrito-federal-10-30-2021/event/14005793875D3256,Music,Rock,2021-10-30,20:00:00,El Lunario del Auditorio Nacional
Ciudad de México,1afza-0gkdm5adm,KovZpZA6EkkA,"Clásicos Fantásticos ""La Gusana Ciega y Jumbo""","Dos de las bandas más importantes de la escena del rock nacional unirán sus talentos para crear el concepto Clásicos Fantásticos. Jumbo, precursores del llamado movimiento de la avanzada regia, y La Gusana Ciega, una de las bandas más prolíficas del rock alternativo en español, presentarán un gran abanico de sus grandes éxitos el próximo sábado, 12 de septiembre y qué mejor lugar para vivir esta intensa y energética velada que el Auditorio Nacional. La preventa Citibanamex se realizará el 11 de marzo (venta online por Ticketmaster.com.mx) y 12 de marzo en toda la red Ticketmaster. Han sido pocas las bandas que han logrado crear canciones que trasciendan con el paso del tiempo. Con más de 10 álbumes y una extensa lista de hits sonados por semanas consecutivas, han llegado a distintas generaciones con temas que son considerados actualmente como clásicos del cancionero del rock en español.",Paseo de la Reforma # 50 Col Polanco V Sección,Ciudad de México,Distrito Federal,[{'url': 'https://www.facebook.com/lagusanaciega'}],[{'url': 'http://www.lagusana.com.mx/'}],19.424648,-99.19484,https://www.ticketmaster.com.mx/clasicos-fantasticos-la-gusana-ciega-y-ciudad-de-mexico-distrito-federal-09-18-2021/event/14005864F72C9EF7,Music,Rock,2021-09-18,20:00:00,Auditorio Nacional
Ciudad de México,1afza-0gkduqyyv,KovZpZA6EkkA,"Clásicos Fantásticos ""La Gusana Ciega y Jumbo""(Preferente Gral de Pie)","Dos de las bandas más importantes de la escena del rock nacional unirán sus talentos para crear el concepto Clásicos Fantásticos. Jumbo, precursores del llamado movimiento de la avanzada regia, y La Gusana Ciega, una de las bandas más prolíficas del rock alternativo en español, presentarán un gran abanico de sus grandes éxitos el próximo sábado, 12 de septiembre y qué mejor lugar para vivir esta intensa y energética velada que el Auditorio Nacional. La preventa Citibanamex se realizará el 11 de marzo (venta online por Ticketmaster.com.mx) y 12 de marzo en toda la red Ticketmaster. Han sido pocas las bandas que han logrado crear canciones que trasciendan con el paso del tiempo. Con más de 10 álbumes y una extensa lista de hits sonados por semanas consecutivas, han llegado a distintas generaciones con temas que son considerados actualmente como clásicos del cancionero del rock en español.",Paseo de la Reforma # 50 Col Polanco V Sección,Ciudad de México,Distrito Federal,[{'url': 'https://www.facebook.com/lagusanaciega'}],[{'url': 'http://www.lagusana.com.mx/'}],19.424648,-99.19484,https://www.ticketmaster.com.mx/clasicos-fantasticos-la-gusana-ciega-y-ciudad-de-mexico-distrito-federal-09-18-2021/event/14005864F6779E41,Music,Rock,2021-09-18,20:00:00,Auditorio Nacional
Ciudad de México,1kazv9-6gaci-ev,KovZpZA6EtdA,Macedonia en Concierto,null,Costado poniente del Auditorio Nacional frente al Campo,Ciudad de México,Distrito Federal,null,null,19.424682,-99.1954,https://www.ticketmaster.com.mx/macedonia-en-concierto-ciudad-de-mexico-distrito-federal-11-19-2021/event/140057847EB219F4,Music,Pop,2021-11-19,21:00:00,El Lunario del Auditorio Nacional
Ciudad de México,1afzaozgkd9vox5,KovZpZA6EtdA,Maldita Nerea,"MALDITA NEREA prepara su nuevo concierto en México el próximo 21 de Marzo. El grupo liderado por Jorge Ruiz, vuelve al Lunario de Ciudad de México para presentar su nuevo disco, ""Un Planeta Llamado Nosotros"", que lanzará Sony Music el 31 de Enero de 2020. En este nuevo trabajo, que verá la luz el próximo 31 de Enero, la banda murciana vuelve a sumergirnos en ese particular universo lleno de energía y vitalidad al que nos tiene tan acostumbrados en sus producciones discográficas. Eso sí, esta vez, con más fuerza y claridad de lo habitual. Y hemos podido comprobarlo ya en el primer single homónimo, producido por Paco Salazar, con el que han superado las 600.000 visitas en YouTube y Spotify en apenas unos días. ""Hacen falta más personas como tú, y menos miedo"", es el lema principal de este nuevo himno de Maldita Nerea que nos deja con la miel en los labios y con muchas ganas de conocer qué se esconde tras este nuevo trabajo.",Costado poniente del Auditorio Nacional frente al Campo,Ciudad de México,Distrito Federal,null,[{'url': 'http://www.malditanerea.com/'}],19.424682,-99.1954,https://www.ticketmaster.com.mx/maldita-nerea-ciudad-de-mexico-distrito-federal-11-20-2021/event/14005838D706088B,Music,Pop,2021-11-20,21:00:00,El Lunario del Auditorio Nacional
Ciudad de México,1afza-6gkd5jid3,KovZpZA6EkkA,Ringo Starr and His All Starr Band,"Hoy OCESA anuncia el regreso Ringo Starr a la Ciudad de México acompañado por su All Starr Band, que en la actualidad está formada por Steve Lukather, Colin Hay, Gregg Rolie, Warren Ham, Gregg Bissonette y Hamish Stuart. El 20 de octubre, Starr y compañía tomarán el escenario del Auditorio Nacional. Los boletos estarán disponibles en una Preventa Exclusiva para titulares de tarjetas Citibanamex los días 2 y 3 de marzo y en Venta General a partir del 4 de marzo a través de www.ticketmaster.com.mx Este anuncio llega justo después del lanzamiento del vigésimo disco de estudio de Ringo, What's My Name. La canción principal es un himno entusiasta escrito por un miembro de All Starr Band que regresa, Colin Hay, que convierte un canto familiar de los shows en vivo de Ringo en un coro que seguramente complacerá multitudes.",Paseo de la Reforma # 50 Col Polanco V Sección,Ciudad de México,Distrito Federal,null,null,19.424648,-99.19484,https://www.ticketmaster.com.mx/ringo-starr-and-his-all-starr-ciudad-de-mexico-distrito-federal-10-20-2021/event/14005847CB9A8ED2,Music,Pop,2021-10-20,20:30:00,Auditorio Nacional
Ciudad de México,16fza-kfyza878uu,KovZpZA6EkkA,Luis Pescetti,null,Paseo de la Reforma # 50 Col Polanco V Sección,Ciudad de México,Distrito Federal,null,null,19.424648,-99.19484,https://www.ticketmaster.com.mx/luis-pescetti-ciudad-de-mexico-distrito-federal-11-07-2021/event/14005846230F3FCC,Music,Children's Music,2021-11-07,13:00:00,Auditorio Nacional
Ciudad de México,16v8zp7b0g7hv7j,KovZpZA6EkkA,Luis Pescetti VIP,null,Paseo de la Reforma # 50 Col Polanco V Sección,Ciudad de México,Distrito Federal,null,null,19.424648,-99.19484,https://www.ticketmaster.com.mx/luis-pescetti-vip-ciudad-de-mexico-distrito-federal-11-07-2021/event/1400584624F3411C,Music,Children's Music,2021-11-07,13:00:00,Auditorio Nacional
Ciudad de México,1afzaomgkeejeql,KovZpZA6EkkA,Liverpool Legends: The Complete Beatles Experience,"No te pierdas a LIVERPOOL LEGENDS, el grupo tributo a los BEATLES más prestigiado en el mundo! Fundados por LOUISE HARRISON (hermana de GEORGE HARRISON), regresan al AUDITORIO NACIONAL los días VIERNES 15 y SABADO 16 DE MAYO, después de exitosos conciertos en nuestro país en 2015, 2016, 2017, 2018 y 2019. Disfruta un CONCIERTO Y PRODUCCION DE TODAS LAS ETAPAS DE LOS BEATLES que se ha ganado un lugar indiscutible como el mejor show tributo a los BEATLES en MEXICO! Una verdadera experiencia musical que cualquier fan de la música debe vivir! Acompañados por la ORQUESTA SINFONICA DE MINERIA, dirigida por el multi premiado Maestro, TOMER ADADDI. Más información en radiocentro.com. 7. Programa del evento con integrantes y directores Grupo: LIVERPOOL LEGENDS Orquesta: ORQUESTA SINFONICA DE MINERIA Maestro: TOMER ADADDI",Paseo de la Reforma # 50 Col Polanco V Sección,Ciudad de México,Distrito Federal,[{'url': 'https://www.facebook.com/liverpoollegendsofficial/timeline'}],null,19.424648,-99.19484,https://www.ticketmaster.com.mx/liverpool-legends-the-complete-beatles-experience-ciudad-de-mexico-distrito-federal-11-20-2021/event/14005837A79A775F,Music,Rock,2021-11-20,20:30:00,Auditorio Nacional
Ciudad de México,17azvpg62xqyw8l,KovZpZA6EkkA,Haragan & Cia,"Han pasado casi tres décadas desde que Luis Alvarez ""el Haragán"" debutara por pri-mera vez en un escenario, ""Muñequita sintética"" ,""Él no lo mató"", "" Tú mamá no me quiere"", "" Historia de un minuto"" entre muchas otras, son canciones que forman parte de la cultura popular. Para celebrar sus 30 años de exitosa carrera ininterrumpida, Luis Alvarez ""El Ha-ragán y cía"" darán un show especial, la cita será esté próximo domingo 19 de abril del 2020 en el coloso de Paseo de la Reforma. Los boletos tendrán un costo de $ y estarán disponibles para venta a todo el publico a partir de este jueves 1 de agosto en el sistema ticketmaster y taquillas del auditorio. El festejo por su 30 aniversario será único e irrepetible, un viaje por toda su discogra-fía, sus éxitos; canciones que forman parte de la memoria colectiva, con 11 discos, en donde coquetean con ritmos que van desde rock hasta el blues.",Paseo de la Reforma # 50 Col Polanco V Sección,Ciudad de México,Distrito Federal,null,null,19.424648,-99.19484,https://www.ticketmaster.com.mx/haragan-cia-ciudad-de-mexico-distrito-federal-02-03-2022/event/140056FF9AC3241F,Music,Rock,2022-02-03,20:30:00,Auditorio Nacional
Ciudad de México,1afzaqegkeh6arr,KovZpZA6EkkA,Dead Can Dance,null,Paseo de la Reforma # 50 Col Polanco V Sección,Ciudad de México,Distrito Federal,[{'url': 'https://www.facebook.com/DeadCanDanceOfficial'}],[{'url': 'http://www.deadcandance.com/'}],19.424648,-99.19484,https://www.ticketmaster.com.mx/dead-can-dance-ciudad-de-mexico-distrito-federal-10-29-2021/event/14005742BC1C979E,Music,Rock,2021-10-29,21:00:00,Auditorio Nacional
Ciudad de México,1av8zpagkl0rmhe,KovZpZA6EkkA,Allison,null,Paseo de la Reforma # 50 Col Polanco V Sección,Ciudad de México,Distrito Federal,[{'url': 'https://www.facebook.com/Allisonoficial'}],null,19.424648,-99.19484,https://www.ticketmaster.com.mx/allison-ciudad-de-mexico-distrito-federal-02-04-2022/event/1400585AE4BEE6E7,Music,Rock,2022-02-04,20:30:00,Auditorio Nacional
México,1kazv9e8ga2bokw,KovZpZAJnJeA,Lucybell,"La banda chilena, Lucybell, es ya un referente del rock latinoamericano desde su debut en 1991. La agrupación integrada por Claudio Valenzuela, Eduardo Caces y Cote Foncea están de regreso en los escenarios como parte de la gira promocional del disco ""Magnético"", su primer disco en casi cuatro años. Con cerca de treinta años de carrera y un sonido que es una mezcla equilibrada de música de guitarra electrónica, acústica y rock, Lucybell ha lanzado al mercado ocho discos de estudio de donde se desprenden canciones que forman parte de la historia personal de cientos de fans alrededor del mundo",Juan Escutia #4 Col. Condesa,México,Distrito Federal,[{'url': 'https://www.facebook.com/lucybelloficial'}],[{'url': 'http://www.lucybell.cl/'}],19.4149494,-99.1750336,https://www.ticketmaster.com.mx/lucybell-mexico-distrito-federal-07-25-2021/event/140057090FE914F2,Music,Rock,2021-07-25,19:00:00,El Plaza Condesa
México,1afzarkgkdzmupz,KovZpZAJnJeA,Human Drama,"HUMAN DRAMA celebrando su XXXV aniversario con el TRILOGY SHOW, donde tocaran sus 3 principales discos Pin Ups, Cause And Effect y The World Inside en su TOTALIDAD, este 6 de Junio en Plaza Condesa!!! Acompáñanos en una noche legendaria con un show nunca antes realizado por la banda a lado de: Indovina, Balderas, Fuxan. Collister, Grove, González y Pozos.",Juan Escutia #4 Col. Condesa,México,Distrito Federal,null,null,19.4149494,-99.1750336,https://www.ticketmaster.com.mx/human-drama-mexico-distrito-federal-06-25-2022/event/14005793C0DCD5B8,Music,Rock,2022-06-25,20:00:00,El Plaza Condesa
México,1av8zp7gkwhdkii,KovZpZAJllnA,Foals,null,"Dakota S/N, Colonia Nápoles",México,Distrito Federal,[{'url': 'https://www.facebook.com/Foals'}],[{'url': 'http://www.foals.co.uk/'}],19.3934097,-99.1758118,https://www.ticketmaster.com.mx/foals-mexico-distrito-federal-05-13-2022/event/1400584C9BED3B2C,Music,Rock,2022-05-13,20:30:00,Pepsi Center WTC
México,1av8z4ugktzf5tz,KovZpZA6JttA,Dani Martín,"""Tras agotar el Teatro Metropólitan en el 2018 con la ""Gira Grandes Éxitos y Pequeños Desastres"", Dani Martín Regresa a la Ciudad de México a presentar su nuevo disco dentro de la ""Gira lo que me dé la gana"", podrás disfrutar las nuevas canciones de este disco junto con los éxitos de su carrera, un show único que no te puedes perder."" ***La sección VIP incluye ""Meet&Greet"" al final del show****","Independencia #90 Col. Centro, entre las calles de Balderas",México,Distrito Federal,null,null,19.433457,-99.146811,https://www.ticketmaster.com.mx/dani-martin-mexico-distrito-federal-09-24-2021/event/1400576FC050BA40,Music,Pop,2021-09-24,20:30:00,Teatro Metropolitan
México,1fazvbu-7sz726ea,KovZpZA6JttA,Dvicio,"Con su música han hecho vibrar a más de 10 países incluyendo Brasil y Tailandia. Dvicio, el quinteto español que ha conquistado las plataformas de streaming y estaciones de radio con temas como: ""Enamórate"", ""Casi humanos"", ""Qué tienes tú"" entre muchas otras, causará furor con su gran dosis de energía y buena vibra en su próximo concierto en la Ciudad de México.","Independencia #90 Col. Centro, entre las calles de Balderas",México,Distrito Federal,null,null,19.433457,-99.146811,https://www.ticketmaster.com.mx/dvicio-mexico-distrito-federal-11-05-2021/event/140058361131E614,Music,Pop,2021-11-05,20:30:00,Teatro Metropolitan
México,1afza-kgkdmjxah,KovZpZA6JttA,David Bisbal,"Luego de un receso de los escenarios, David Bisbal anunció que ya está más que listo para iniciar con una gira internacional que abarca entre otros países, a México. El cantautor que presentó su más reciente producción En tus planes, estará de regreso en nuestro país el próximo 3 de octubre en el Teatro Metropólitan. David regresa con un rotundo éxito y muestra de ello es que a tan solo unos días de que su producción musical viera la luz, se convirtió de inmediato en Disco de Platino en su natal España. Para el intérprete, éste álbum le representa un material más universal; un álbum colorista lleno de registros musicales que conectan a la perfección todos los estilos que caracterizan al artista desde la rumba latina a la más sentida balada.","Independencia #90 Col. Centro, entre las calles de Balderas",México,Distrito Federal,[{'url': 'https://www.facebook.com/davidbisbal'}],[{'url': 'http://www.davidbisbal.com/'}],19.433457,-99.146811,https://www.ticketmaster.com.mx/david-bisbal-mexico-distrito-federal-11-06-2021/event/14005846EE73E15B,Music,Pop,2021-11-06,20:00:00,Teatro Metropolitan
México,1afzarbgkdfptnu,KovZpZAJnJeA,Charli XCX,"Charli XCX es sin lugar a dudas la nueva sensación del pop británico. Es conocida por sus colaboraciones con Iggy Azalea e Icona Pop, pero últimamente son sus espectaculares shows en solitario los que entusiasman a los fanáticos. Charli posee una presencia dominante en el escenario que se conjuga con su poderosa voz y sus atuendos vanguardistas con los que busca poner a vibrar el escenario con sus canciones pegadizas como ""Boom Clap"" y ""You (Ha Ha Ha)"".Los críticos han defendido a Charli como el nuevo ícono de la música pop. Nacida en la ciudad británica de Stevenage, Charli XCX, también conocida como Charlotte Emma Aitchison, comenzó a escribir canciones a los 14 años. Con tan sólo 27 años, la artista británica está de regreso para presentar al público mexicano su tercer álbum de estudio titulado ""Charli"".",Juan Escutia #4 Col. Condesa,México,Distrito Federal,[{'url': 'https://www.facebook.com/charlixcxmusic'}],[{'url': 'http://www.charlixcxmusic.com/'}],19.4149494,-99.1750336,https://www.ticketmaster.com.mx/charli-xcx-mexico-distrito-federal-10-21-2022/event/14005798C85A98F6,Music,Rock,2022-10-21,21:00:00,El Plaza Condesa
Mexico,g5v8zpi9_qkd1,KovZpZA6EkIA,WOHL Orofonia del Sentimiento Fiesta musical alternativa,"WOHL y sus invitados especiales presentan una noche de buena música alternativa para celebrar el lanzamiento de su EP: ""Orofonía del Sentimiento"" del género post-rock. Después de su primera gira por el norte de Europa, Wohl se presenta en la Cd. Mx. donde compartirá su ideología: vivir la música sin límites transmitiendo un sin fin de sentimientos dando la posibilidad a las personas de apropiarse emocionalmente de cada melodía e interpretarla libremente, creando atmósferas que invitan a la introspección. Noche especial con la música alternativa mas prometedora de México.","Donceles #36, Col. Centro Historico",Mexico,Distrito Federal,null,null,19.4366936,-99.1394375,https://www.ticketmaster.com.mx/wohl-orofonia-del-sentimiento-fiesta-musical-mexico-distrito-federal-08-26-2021/event/14005A85D9693ECA,Music,Rock,2021-08-26,20:30:00,Teatro de la Ciudad Esperanza Iris
Mexico,g5v8zpi1eugw-,KovZpZA6EkIA,Vienen las Brujas XXXI Aniversario Victimas del Dr Cerebro,"Victimas del Dr Cerebro celebra XXXI años, presentando Ahí vienen las brujas la mas reciente producción de la banda del cual se desprende su mas reciente sencillo ¨Alicia¨ , acompañado de un viaje a través de la historia y discográfica de la Banda.","Donceles #36, Col. Centro Historico",Mexico,Distrito Federal,null,null,19.4366936,-99.1394375,https://www.ticketmaster.com.mx/vienen-las-brujas-xxxi-aniversario-victimas-mexico-distrito-federal-10-30-2021/event/14005AC2A7375F61,Music,Rock,2021-10-30,19:00:00,Teatro de la Ciudad Esperanza Iris
México,1afzaqogkebfb2_,KovZpZAd1IaA,Tame Impala + MGMT Numerado,"Mucho ha cambiado desde que Tame Impala surgió por primera vez con un EP de grabaciones caseras en 2008, pero enfoque de Kevin Parker para grabar su música no lo hizo; aunque el sonido que sale de su estudio casero se ha expandido enormemente, al igual que la cantidad de personas que anticipan los frutos de su labor. Formados en 2007 y con algunos cambios en los miembros y su configuración, una cosa permanece constante: un amor compartido por el rock, el blues, el jazz, la psicodelia y sobre todo por la música. Escuchar su EP debut o alguno de sus 3 discos de estudio (Innerspeaker, 2010; Lonerism 2012; Currents, 2015) es por sí misma una gran experiencia, pero presenciar un espectáculo en vivo de Tame Impala es realmente alucinante, saturado con una belleza sencilla y creatividad sin límites.",Viaducto Piedad y Río Churubusco s/n Cd. Deportiva,México,Distrito Federal,[{'url': 'https://www.facebook.com/tameimpala'}],[{'url': 'http://www.tameimpala.com/'}],19.405199,-99.095618,https://www.ticketmaster.com.mx/tame-impala-mgmt-numerado-mexico-distrito-federal-07-22-2021/event/14005751BA23A3D9,Music,Rock,2021-07-22,19:00:00,Foro Sol
México,1afzaqogkewizse,KovZpZAd1IaA,Tame Impala + MGMT General,"Mucho ha cambiado desde que Tame Impala surgió por primera vez con un EP de grabaciones caseras en 2008, pero enfoque de Kevin Parker para grabar su música no lo hizo; aunque el sonido que sale de su estudio casero se ha expandido enormemente, al igual que la cantidad de personas que anticipan los frutos de su labor. Formados en 2007 y con algunos cambios en los miembros y su configuración, una cosa permanece constante: un amor compartido por el rock, el blues, el jazz, la psicodelia y sobre todo por la música. Escuchar su EP debut o alguno de sus 3 discos de estudio (Innerspeaker, 2010; Lonerism 2012; Currents, 2015) es por sí misma una gran experiencia, pero presenciar un espectáculo en vivo de Tame Impala es realmente alucinante, saturado con una belleza sencilla y creatividad sin límites.",Viaducto Piedad y Río Churubusco s/n Cd. Deportiva,México,Distrito Federal,[{'url': 'https://www.facebook.com/tameimpala'}],[{'url': 'http://www.tameimpala.com/'}],19.405199,-99.095618,https://www.ticketmaster.com.mx/tame-impala-mgmt-general-mexico-distrito-federal-07-22-2021/event/14005751B2A38CE7,Music,Rock,2021-07-22,19:00:00,Foro Sol
México,1av8zpegkumlaup,KovZpZA77t6A,Roger Waters: This Is Not a Drill,"""Será un nuevo espectáculo. Sin restricciones. Mi trabajo es pensar: ""Bueno, ¿cómo puedo hacer que el rock & roll sea más interesante o teatral o emocionante o visual o musical o lo que sea?"" Eso es lo que he pasado los últimos 50 años haciendo, expresándome"" . Cortesía de Kory Grow, Rolling Stone",Av. Río Churubusco y Añil s/n,México,Distrito Federal,[{'url': 'https://www.facebook.com/rogerwaters'}],[{'url': 'http://www.roger-waters.com/'}],19.4015408,-99.0980606,https://www.ticketmaster.com.mx/roger-waters-this-is-not-a-mexico-distrito-federal-10-14-2022/event/1400582DB7AC5365,Music,Rock,2022-10-14,21:00:00,Palacio de los Deportes
México,1av8zpegkur0e-6,KovZpZA77t6A,Roger Waters: This Is Not a Drill General,"""Será un nuevo espectáculo. Sin restricciones. Mi trabajo es pensar: ""Bueno, ¿cómo puedo hacer que el rock & roll sea más interesante o teatral o emocionante o visual o musical o lo que sea?"" Eso es lo que he pasado los últimos 50 años haciendo, expresándome"" . Cortesía de Kory Grow, Rolling Stone",Av. Río Churubusco y Añil s/n,México,Distrito Federal,[{'url': 'https://www.facebook.com/rogerwaters'}],[{'url': 'http://www.roger-waters.com/'}],19.4015408,-99.0980606,https://www.ticketmaster.com.mx/roger-waters-this-is-not-a-mexico-distrito-federal-10-14-2022/event/1400582D9E902847,Music,Rock,2022-10-14,21:00:00,Palacio de los Deportes
México,1kazvbfiga51wzf,KovZpZA77t6A,Roger Waters: This Is Not a Drill,"Será un nuevo espectáculo. Sin restricciones. Mi trabajo es pensar: ""Bueno, ¿cómo puedo hacer que el rock & roll sea más interesante o teatral o emocionante o visual o musical o lo que sea?"" Eso es lo que he pasado los últimos 50 años haciendo, expresándome"" . Cortesía de Kory Grow, Rolling Stone",Av. Río Churubusco y Añil s/n,México,Distrito Federal,[{'url': 'https://www.facebook.com/rogerwaters'}],[{'url': 'http://www.roger-waters.com/'}],19.4015408,-99.0980606,https://www.ticketmaster.com.mx/roger-waters-this-is-not-a-mexico-distrito-federal-10-15-2022/event/140058528B2B2014,Music,Rock,2022-10-15,20:00:00,Palacio de los Deportes
México,1afzaomgkdi3vw4,KovZpZAd1IaA,Rammstein Amerika Stadium Tour Grada Norte y Sur.,"RAMMSTEIN conformado por CHRISTOPH SCHNEIDER, FLAKE LORENZ, OLIVER RIEDEL, PAUL LANDERS, RICHARD Z. KRUSPE, y TILL LINDEMANN, se ha mantenido sin cambios desde la formación de la banda en 1994 y el lanzamiento del disco debut HERZELEID en 1995. El segundo álbum de RAMMSTEIN, SEHNSUCHT, lanzado en 1997, impulsó a la banda a la fama internacional y presentó el sencillo nominado al GRAMMY DU HAST. MUTTER, el tercer álbum de RAMMSTEIN, fue lanzado en 2001 y fue apoyado, por lo que sería, la gira final de la banda por Estados Unidos durante casi una década. REISE, REISE, el cuarto álbum de estudio de la banda, fue lanzado en 2004, precedido por el single nominado al GRAMMY MEIN TEIL y seguido por el quinto álbum ROSENROT en 2005. LIEBE IST FÜR ALLE DA, el sexto álbum de estudio RAMMSTEIN, fue lanzado en 2009 y alcanzó el puesto número 13 en el Billboard 200, lo que lo convierte en el álbum con más éxitos de RAMMSTEIN en Estados Unidos, hasta ese momento.",Viaducto Piedad y Río Churubusco s/n Cd. Deportiva,México,Distrito Federal,[{'url': 'https://www.facebook.com/Rammstein'}],"[{'url': 'http://www.rammstein.com/'}, {'url': 'http://www.rammstein.de/'}]",19.405199,-99.095618,https://www.ticketmaster.com.mx/rammstein-amerika-stadium-tour-grada-norte-mexico-distrito-federal-10-01-2022/event/14005837E8481F55,Music,Rock,2022-10-01,20:30:00,Foro Sol
México,1afzaomgkdlttsg,KovZpZAd1IaA,Rammstein Amerika Stadium Tour Feuerzone GA General A y B.,"RAMMSTEIN conformado por CHRISTOPH SCHNEIDER, FLAKE LORENZ, OLIVER RIEDEL, PAUL LANDERS, RICHARD Z. KRUSPE, y TILL LINDEMANN, se ha mantenido sin cambios desde la formación de la banda en 1994 y el lanzamiento del disco debut HERZELEID en 1995. El segundo álbum de RAMMSTEIN, SEHNSUCHT, lanzado en 1997, impulsó a la banda a la fama internacional y presentó el sencillo nominado al GRAMMY DU HAST. MUTTER, el tercer álbum de RAMMSTEIN, fue lanzado en 2001 y fue apoyado, por lo que sería, la gira final de la banda por Estados Unidos durante casi una década. REISE, REISE, el cuarto álbum de estudio de la banda, fue lanzado en 2004, precedido por el single nominado al GRAMMY MEIN TEIL y seguido por el quinto álbum ROSENROT en 2005. LIEBE IST FÜR ALLE DA, el sexto álbum de estudio RAMMSTEIN, fue lanzado en 2009 y alcanzó el puesto número 13 en el Billboard 200, lo que lo convierte en el álbum con más éxitos de RAMMSTEIN en Estados Unidos, hasta ese momento.",Viaducto Piedad y Río Churubusco s/n Cd. Deportiva,México,Distrito Federal,[{'url': 'https://www.facebook.com/Rammstein'}],"[{'url': 'http://www.rammstein.com/'}, {'url': 'http://www.rammstein.de/'}]",19.405199,-99.095618,https://www.ticketmaster.com.mx/rammstein-amerika-stadium-tour-feuerzone-ga-mexico-distrito-federal-10-01-2022/event/14005837DFA7FC4C,Music,Rock,2022-10-01,20:30:00,Foro Sol
México,1av8zpegkldvjlu,KovZpZAd1IaA,Rammstein Amerika Stadium Tour Grada Norte y Sur.,"RAMMSTEIN conformado por CHRISTOPH SCHNEIDER, FLAKE LORENZ, OLIVER RIEDEL, PAUL LANDERS, RICHARD Z. KRUSPE, y TILL LINDEMANN, se ha mantenido sin cambios desde la formación de la banda en 1994 y el lanzamiento del disco debut HERZELEID en 1995. El segundo álbum de RAMMSTEIN, SEHNSUCHT, lanzado en 1997, impulsó a la banda a la fama internacional y presentó el sencillo nominado al GRAMMY DU HAST. MUTTER, el tercer álbum de RAMMSTEIN, fue lanzado en 2001 y fue apoyado, por lo que sería, la gira final de la banda por Estados Unidos durante casi una década. REISE, REISE, el cuarto álbum de estudio de la banda, fue lanzado en 2004, precedido por el single nominado al GRAMMY MEIN TEIL y seguido por el quinto álbum ROSENROT en 2005. LIEBE IST FÜR ALLE DA, el sexto álbum de estudio RAMMSTEIN, fue lanzado en 2009 y alcanzó el puesto número 13 en el Billboard 200, lo que lo convierte en el álbum con más éxitos de RAMMSTEIN en Estados Unidos, hasta ese momento.",Viaducto Piedad y Río Churubusco s/n Cd. Deportiva,México,Distrito Federal,[{'url': 'https://www.facebook.com/Rammstein'}],"[{'url': 'http://www.rammstein.com/'}, {'url': 'http://www.rammstein.de/'}]",19.405199,-99.095618,https://www.ticketmaster.com.mx/rammstein-amerika-stadium-tour-grada-norte-mexico-distrito-federal-10-02-2022/event/1400582AC3D267F6,Music,Rock,2022-10-02,20:30:00,Foro Sol
México,1av8zpegkljgflc,KovZpZAd1IaA,Rammstein Amerika Stadium Tour Feuerzone GA General A y B.,"RAMMSTEIN conformado por CHRISTOPH SCHNEIDER, FLAKE LORENZ, OLIVER RIEDEL, PAUL LANDERS, RICHARD Z. KRUSPE, y TILL LINDEMANN, se ha mantenido sin cambios desde la formación de la banda en 1994 y el lanzamiento del disco debut HERZELEID en 1995. El segundo álbum de RAMMSTEIN, SEHNSUCHT, lanzado en 1997, impulsó a la banda a la fama internacional y presentó el sencillo nominado al GRAMMY DU HAST. MUTTER, el tercer álbum de RAMMSTEIN, fue lanzado en 2001 y fue apoyado, por lo que sería, la gira final de la banda por Estados Unidos durante casi una década. REISE, REISE, el cuarto álbum de estudio de la banda, fue lanzado en 2004, precedido por el single nominado al GRAMMY MEIN TEIL y seguido por el quinto álbum ROSENROT en 2005. LIEBE IST FÜR ALLE DA, el sexto álbum de estudio RAMMSTEIN, fue lanzado en 2009 y alcanzó el puesto número 13 en el Billboard 200, lo que lo convierte en el álbum con más éxitos de RAMMSTEIN en Estados Unidos, hasta ese momento.",Viaducto Piedad y Río Churubusco s/n Cd. Deportiva,México,Distrito Federal,[{'url': 'https://www.facebook.com/Rammstein'}],"[{'url': 'http://www.rammstein.com/'}, {'url': 'http://www.rammstein.de/'}]",19.405199,-99.095618,https://www.ticketmaster.com.mx/rammstein-amerika-stadium-tour-feuerzone-ga-mexico-distrito-federal-10-02-2022/event/1400582ADCD487CE,Music,Rock,2022-10-02,20:30:00,Foro Sol
México,1av8zpdgkm3yabt,KovZpZAd1IaA,Rammstein Amerika Stadium Tour Grada Norte y Sur,"RAMMSTEIN conformado por CHRISTOPH SCHNEIDER, FLAKE LORENZ, OLIVER RIEDEL, PAUL LANDERS, RICHARD Z. KRUSPE, y TILL LINDEMANN, se ha mantenido sin cambios desde la formación de la banda en 1994 y el lanzamiento del disco debut HERZELEID en 1995. El segundo álbum de RAMMSTEIN, SEHNSUCHT, lanzado en 1997, impulsó a la banda a la fama internacional y presentó el sencillo nominado al GRAMMY DU HAST. MUTTER, el tercer álbum de RAMMSTEIN, fue lanzado en 2001 y fue apoyado, por lo que sería, la gira final de la banda por Estados Unidos durante casi una década. REISE, REISE, el cuarto álbum de estudio de la banda, fue lanzado en 2004, precedido por el single nominado al GRAMMY MEIN TEIL y seguido por el quinto álbum ROSENROT en 2005. LIEBE IST FÜR ALLE DA, el sexto álbum de estudio RAMMSTEIN, fue lanzado en 2009 y alcanzó el puesto número 13 en el Billboard 200, lo que lo convierte en el álbum con más éxitos de RAMMSTEIN en Estados Unidos, hasta ese momento.",Viaducto Piedad y Río Churubusco s/n Cd. Deportiva,México,Distrito Federal,[{'url': 'https://www.facebook.com/Rammstein'}],"[{'url': 'http://www.rammstein.com/'}, {'url': 'http://www.rammstein.de/'}]",19.405199,-99.095618,https://www.ticketmaster.com.mx/rammstein-amerika-stadium-tour-grada-norte-mexico-distrito-federal-10-04-2022/event/1400583DD2C09629,Music,Rock,2022-10-04,20:30:00,Foro Sol
México,1av8zpdgkm4q_0k,KovZpZAd1IaA,Rammstein Amerika Stadium Tour Feuerzone GA General A y B,"RAMMSTEIN conformado por CHRISTOPH SCHNEIDER, FLAKE LORENZ, OLIVER RIEDEL, PAUL LANDERS, RICHARD Z. KRUSPE, y TILL LINDEMANN, se ha mantenido sin cambios desde la formación de la banda en 1994 y el lanzamiento del disco debut HERZELEID en 1995. El segundo álbum de RAMMSTEIN, SEHNSUCHT, lanzado en 1997, impulsó a la banda a la fama internacional y presentó el sencillo nominado al GRAMMY DU HAST. MUTTER, el tercer álbum de RAMMSTEIN, fue lanzado en 2001 y fue apoyado, por lo que sería, la gira final de la banda por Estados Unidos durante casi una década. REISE, REISE, el cuarto álbum de estudio de la banda, fue lanzado en 2004, precedido por el single nominado al GRAMMY MEIN TEIL y seguido por el quinto álbum ROSENROT en 2005. LIEBE IST FÜR ALLE DA, el sexto álbum de estudio RAMMSTEIN, fue lanzado en 2009 y alcanzó el puesto número 13 en el Billboard 200, lo que lo convierte en el álbum con más éxitos de RAMMSTEIN en Estados Unidos, hasta ese momento.",Viaducto Piedad y Río Churubusco s/n Cd. Deportiva,México,Distrito Federal,[{'url': 'https://www.facebook.com/Rammstein'}],"[{'url': 'http://www.rammstein.com/'}, {'url': 'http://www.rammstein.de/'}]",19.405199,-99.095618,https://www.ticketmaster.com.mx/rammstein-amerika-stadium-tour-feuerzone-ga-mexico-distrito-federal-10-04-2022/event/1400583DD5759913,Music,Rock,2022-10-04,20:30:00,Foro Sol
México,g5v8zpi1ig4xj,KovZpZAJtl7A,Portento   Love chose us,"Colectivo experimental internacional con base en Ciudad de México producido por Ariel Gamboni y Roberto Collío,",Ejército Nacional #843-B esq. Molier,México,Distrito Federal,null,null,19.4372807,-99.201149,https://www.ticketmaster.com.mx/portento-love-chose-us-mexico-distrito-federal-07-17-2021/event/14005AC2A8D55F9C,Music,Ballads/Romantic,2021-07-17,19:00:00,Foro 2 Totalplay
Ciudad de México,1afza-kgkdeiey6,KovZpZA6EtdA,Primo Son,"Primo Son presenta su primer disco ""Yo Lo Que Quiero Es Romper La Piñata"". De boleros y baladas a cumbias y tintes de rock psicodélico, la propuesta musical del disco es un viaje por el pasado y presente de la música mexicana, misma que es el ADN de la banda.",Costado poniente del Auditorio Nacional frente al Campo,Ciudad de México,Distrito Federal,null,null,19.424682,-99.1954,https://www.ticketmaster.com.mx/primo-son-ciudad-de-mexico-distrito-federal-08-19-2021/event/14005853C2A27C07,Music,Ballads/Romantic,2021-08-19,21:00:00,El Lunario del Auditorio Nacional
Ciudad de México,1afza-bgkd-6h2v,KovZpZA6EtdA,Janeth Valenzuela - Invencible Tour,"A lo largo de mi vida he tenido que enfrentar grandes obstáculos para poder luchar por mi sueño, para mi estar en el Lunario del Auditorio Nacional significa subir un escalón más hacia alcanzar mi sueño y romper con esas barreras y miedos que creí no poder vencer algún día. Gracias a que soy una persona luchadora decidí realizar este tour y demostrarme a mí misma que todo es posible cuando eres INVENCIBLE, gracias a ti, por ser parte de este sueño. El primer nivel de precio incluye Meet & Greet a las 18:30 hrs Banda abridora Rafa Solís",Costado poniente del Auditorio Nacional frente al Campo,Ciudad de México,Distrito Federal,null,null,19.424682,-99.1954,https://www.ticketmaster.com.mx/janeth-valenzuela-invencible-tour-ciudad-de-mexico-distrito-federal-10-02-2021/event/14005858E11FC3C1,Music,Other,2021-10-02,21:00:00,El Lunario del Auditorio Nacional
Ciudad de México,1afza-vgkdiq01i,KovZpZA6EtdA,Cesar Olguín & Astrid Cruz Presentan: Tango Mortale,"Conformado por un dúo instrumental del que no hay antecedente alguno en ningún género musical, a principio del 2019 nace ""Tango Mortale"". Viola y Bandoneón se conjugan para que con obras de relevantes de compositores como Astor Piazzolla, Daniel Binelli, Rodolfo Mederos y nuevos autores -a través de los ritmos del tango, milonga y vals- nos lleven por paisajes de suburbios antiguos y al mismo tiempo contemporáneos que ya son común a toda metrópoli.",Costado poniente del Auditorio Nacional frente al Campo,Ciudad de México,Distrito Federal,null,null,19.424682,-99.1954,https://www.ticketmaster.com.mx/cesar-olguin-astrid-cruz-presentan-tango-ciudad-de-mexico-distrito-federal-10-09-2021/event/14005874EC7642A8,Music,World,2021-10-09,21:00:00,El Lunario del Auditorio Nacional
Ciudad de México,1kazv9_tgacg0vc,KovZpZA6EkkA,Gilberto Santa Rosa,"Gilberto Santa Rosa presenta ""Tour Caminalo"" que es una producción ejecutiva de Rafo Muñiz, se presentará en legendarios e importantes escenarios a nivel mundial, en México será el Auditorio Nacional de Ciudad de México, La producción de la gira estará centrada en un moderno e imponente montaje que enmarcará la travesía que ha vivido Santa Rosa a través de sus 31 producciones discográficas que lo han hecho merecedor de 13 discos de oro, 13 platinos y 3 multiplatino.",Paseo de la Reforma # 50 Col Polanco V Sección,Ciudad de México,Distrito Federal,[{'url': 'https://www.facebook.com/gilbertosantarosa'}],[{'url': 'http://www.gilbertosantarosa.com/'}],19.424648,-99.19484,https://www.ticketmaster.com.mx/gilberto-santa-rosa-ciudad-de-mexico-distrito-federal-08-13-2021/event/140057669ED64D0E,Music,Latin,2021-08-13,20:30:00,Auditorio Nacional
Ciudad de México,1afzaoegkdzk_ze,KovZpZA6EtdA,"Ornelas ""A Punta de Guitarra y Sax""",null,Costado poniente del Auditorio Nacional frente al Campo,Ciudad de México,Distrito Federal,null,null,19.424682,-99.1954,https://www.ticketmaster.com.mx/ornelas-a-punta-de-guitarra-y-ciudad-de-mexico-distrito-federal-10-15-2021/event/14005827F8199027,Music,World,2021-10-15,21:00:00,El Lunario del Auditorio Nacional
Ciudad de México,1av8zp7gksrrhnq,KovZpZA6EkkA,Victor Manuelle,null,Paseo de la Reforma # 50 Col Polanco V Sección,Ciudad de México,Distrito Federal,[{'url': 'https://www.facebook.com/victormanuelleonline'}],[{'url': 'http://www.victormanuelleonline.com/'}],19.424648,-99.19484,https://www.ticketmaster.com.mx/victor-manuelle-ciudad-de-mexico-distrito-federal-09-03-2021/event/1400584CDE7BC8DA,Music,Latin,2021-09-03,20:30:00,Auditorio Nacional
Ciudad de México,1av8zp7gkwf5vqa,KovZpZA6EtdA,"Strad ""El Violinista Rebelde"" Presenta Mundos Opuestas","Con más de un centenar de conciertos en su primera gira, que ha conquistado a la crítica y al público de los teatros más importantes del Mundo, y colgando el cartel de ¨Entradas Agotadas¨ una y otra vez ; STRAD ¨El Violinista Rebelde¨ presenta su nueva gira ¨Mundos Opuestos¨. Un innovador espectáculo para todos los públicos, todo lo inimaginable se hace realidad, la arrolladora energía de STRAD conseguirá que risas y lágrimas se conviertan converjan como lo hacen los ""Mundos Opuestos"". STRAD ¨El violinista Rebelde¨ o lo que es lo mismo el violinista español Jorge Guillén, considerado como uno de los violinistas internacionales más virtuosos del momento, nos presenta junto a su banda este nuevo espectáculo, que fusiona temas propios con clásicos del rock, flamenco, pop o música clásica.",Costado poniente del Auditorio Nacional frente al Campo,Ciudad de México,Distrito Federal,null,null,19.424682,-99.1954,https://www.ticketmaster.com.mx/strad-el-violinista-rebelde-presenta-mundos-ciudad-de-mexico-distrito-federal-10-24-2021/event/1400584C882C1689,Music,Classical,2021-10-24,22:30:00,El Lunario del Auditorio Nacional
Ciudad de México,1afza-jgkdcue_1,KovZpZA6EtdA,"Carlos Cuevas, Un Bolero para Mamá","Carlos Cuevas ha dedicado su vida y su carrera musical al bolero, género que le ha valido grandes reconocimientos en México y el extranjero, con el paso del tiempo y pese a la gran variedad en géneros musicales que se han desarrollado, se mantiene vigente en el gusto del público como un romántico de la canción. Ésta vez Carlos Cuevas vuelve a Lunario para hacer un repaso por la canción romántica y a ofrecernos una velada inolvidable, porque: ""Mientras exista una pareja de enamorados, existirá el Bolero... y para cantarlo: Carlos Cuevas"" ¡Alegría!",Costado poniente del Auditorio Nacional frente al Campo,Ciudad de México,Distrito Federal,null,null,19.424682,-99.1954,https://www.ticketmaster.com.mx/carlos-cuevas-un-bolero-para-mama-ciudad-de-mexico-distrito-federal-11-05-2021/event/14005866CE36764A,Music,Latin,2021-11-05,21:00:00,El Lunario del Auditorio Nacional
Ciudad de México,g5v8zpncak8w5,KovZpZA6EkkA,Flor Amargo,null,Paseo de la Reforma # 50 Col Polanco V Sección,Ciudad de México,Distrito Federal,null,null,19.424648,-99.19484,https://www.ticketmaster.com.mx/flor-amargo-ciudad-de-mexico-distrito-federal-10-02-2021/event/14005A33894D0F4B,Music,Ballads/Romantic,2021-10-02,20:00:00,Auditorio Nacional
Ciudad de México,16fzaoyowzagau2g,KovZpZA6EkkA,Diego El Cigala VIP,"Chavela me hablaba de México y de sólo escucharla yo ya estaba enamorado de la música, del tequila y de sus historias"". • José Alfredo Jiménez, Manuel ""Wello"" Rivas, Consuelo Velázquez, Alfredo Gil y Armando Manzanero son algunos de los compositores presentes en este disco. • • Los Panchos, Agustín Lara, María Grever, Pedro Infante, Pedro Vargas, Jorge Negrete, Javier Solís, Rocío Durcal, José José y mi querida Chavela Vargas han sido quienes impregnaron esas canciones en mi sangre. MÉXICO LINDO Y QUERIDO México es el país de la música, de la pasión, de los colores vivos, los sabores fuertes y los grandes compositores del amor y desamor en lengua española. Un país que atrapa. Diego ""El Cigala"" presenta este año 2020 un Homenaje al México Lindo y Querido; a la música que ha cruzado todas las fronteras, a la música que se inserta en tu sangre y corazón.",Paseo de la Reforma # 50 Col Polanco V Sección,Ciudad de México,Distrito Federal,null,[{'url': 'http://www.elcigala.com/'}],19.424648,-99.19484,https://www.ticketmaster.com.mx/diego-el-cigala-vip-ciudad-de-mexico-distrito-federal-10-16-2021/event/14005830472B4CEB,Music,World,2021-10-16,20:30:00,Auditorio Nacional
Ciudad de México,16v8zpdvfg7n0v6,KovZpZA6EkkA,Diego El Cigala,"Chavela me hablaba de México y de sólo escucharla yo ya estaba enamorado de la música, del tequila y de sus historias"". • José Alfredo Jiménez, Manuel ""Wello"" Rivas, Consuelo Velázquez, Alfredo Gil y Armando Manzanero son algunos de los compositores presentes en este disco. • • Los Panchos, Agustín Lara, María Grever, Pedro Infante, Pedro Vargas, Jorge Negrete, Javier Solís, Rocío Durcal, José José y mi querida Chavela Vargas han sido quienes impregnaron esas canciones en mi sangre. MÉXICO LINDO Y QUERIDO México es el país de la música, de la pasión, de los colores vivos, los sabores fuertes y los grandes compositores del amor y desamor en lengua española. Un país que atrapa. Diego ""El Cigala"" presenta este año 2020 un Homenaje al México Lindo y Querido; a la música que ha cruzado todas las fronteras, a la música que se inserta en tu sangre y corazón.",Paseo de la Reforma # 50 Col Polanco V Sección,Ciudad de México,Distrito Federal,null,[{'url': 'http://www.elcigala.com/'}],19.424648,-99.19484,https://www.ticketmaster.com.mx/diego-el-cigala-ciudad-de-mexico-distrito-federal-10-16-2021/event/1400583048AA4D07,Music,World,2021-10-16,20:30:00,Auditorio Nacional
Ciudad de México,1av8zpagkmymmzx,KovZpZA6EtdA,Noches de Salón Lunario: La Sonora Santanera,"Una vez más ""La Sonora Santanera"" nos llevará a un viaje musical a través de la historia de la agrupación fundada hace 65 años, en donde los géneros: Bolero. Cha Cha Cha, tropical y anfroantillano estarán presentes en lunario para hacernos bailar y cantar al ritmo de: La Boa, Perfume de Gardenia, Bomboro Quiña Quiña, Luces de Nueva York, entre otras.",Costado poniente del Auditorio Nacional frente al Campo,Ciudad de México,Distrito Federal,null,null,19.424682,-99.1954,https://www.ticketmaster.com.mx/noches-de-salon-lunario-la-sonora-ciudad-de-mexico-distrito-federal-11-25-2021/event/1400585BB0DF7E3E,Music,Latin,2021-11-25,21:00:00,El Lunario del Auditorio Nacional
Ciudad de México,16v8z4yjfg7tdej,KovZpZA6EtdA,Kevin Kaarl,null,Costado poniente del Auditorio Nacional frente al Campo,Ciudad de México,Distrito Federal,null,null,19.424682,-99.1954,https://www.ticketmaster.com.mx/kevin-kaarl-ciudad-de-mexico-distrito-federal-12-04-2021/event/1400579708A4309C,Music,Ballads/Romantic,2021-12-04,20:00:00,El Lunario del Auditorio Nacional
Ciudad de México,1av8zp7gkrpjnxx,KovZpZA6EkkA,Pimpinela,"Pimpinela, el dueto mas importante de Hispanoamerica, regres a México y por la puerta grande, por primera vez en concierto en el Auditorio Nacional, con su espectáculo Grandes Éxitos con el cual estan celebrando su gran aniversario en la música. Una noche para compartir con Lucía y Joaquin su nuevo espectáculo con canciones que son parte de tu vida como: Olvidame y Pega la vuela, A esa, Valiente, Una estupida mas Yo dueña de la noche y Ese Estupido que llama, sin olvidar su mitico Hermanos y su nuevo exito Traición. Una gran noche para reencontrarse con México despues de su presentación en Viña del Mar 2020 y ser ganadoras del Grammy Internacional apenas en la ultima entrega.",Paseo de la Reforma # 50 Col Polanco V Sección,Ciudad de México,Distrito Federal,[{'url': 'https://www.facebook.com/LuciayJoaquin'}],[{'url': 'http://www.pimpinela.net/'}],19.424648,-99.19484,https://www.ticketmaster.com.mx/pimpinela-ciudad-de-mexico-distrito-federal-11-05-2021/event/1400584BE572A8A2,Music,Latin,2021-11-05,20:00:00,Auditorio Nacional
Ciudad de México,1afzaqugkelk51n,KovZpZA6EkkA,José Luis Perales : Baladas Para Una Despedida,"JOSE LUIS PERALES GIRA ""BALADAS PARA UNA DESPEDIDA"" Unida al lanzamiento de su ultimo disco ""MIRANDOTE A LOS OJOS"" (ver nota de prensa adjunta) JOSÉ LUIS PERALES anuncia una nueva gira que no será una mas, si no, su gira de despedida de los escenarios, a la finalización de estos conciertos, continuara con sus trabajos de composición y grabaciones de discos, pero abandonando sus presentaciones personales. El repertorio estará basado en los temas contenidos en este nuevo trabajo ""Mirándote a los ojos…"" con un total de 35 canciones entre sus éxitos de siempre, canciones escritas para otros artistas y algunos nuevos temas.",Paseo de la Reforma # 50 Col Polanco V Sección,Ciudad de México,Distrito Federal,null,null,19.424648,-99.19484,https://www.ticketmaster.com.mx/jose-luis-perales-baladas-para-una-ciudad-de-mexico-distrito-federal-11-06-2021/event/14005776AB18B2A3,Music,Latin,2021-11-06,20:30:00,Auditorio Nacional
Ciudad de México,1av8z4mgkr7ftks,KovZpZA6EkkA,Reik,null,Paseo de la Reforma # 50 Col Polanco V Sección,Ciudad de México,Distrito Federal,[{'url': 'https://www.facebook.com/Reik'}],null,19.424648,-99.19484,https://www.ticketmaster.com.mx/reik-ciudad-de-mexico-distrito-federal-11-18-2021/event/1400577BC42294F1,Music,Latin,2021-11-18,20:30:00,Auditorio Nacional
Ciudad de México,1av8z4mgkrfttvx,KovZpZA6EkkA,Reik VIP,null,Paseo de la Reforma # 50 Col Polanco V Sección,Ciudad de México,Distrito Federal,[{'url': 'https://www.facebook.com/Reik'}],null,19.424648,-99.19484,https://www.ticketmaster.com.mx/reik-vip-ciudad-de-mexico-distrito-federal-11-18-2021/event/1400577BC8A69D3E,Music,Latin,2021-11-18,20:30:00,Auditorio Nacional
Ciudad de México,1afzaragke0a0us,KovZpZA6EkkA,Banda MS de Sergio Lizarraga,null,Paseo de la Reforma # 50 Col Polanco V Sección,Ciudad de México,Distrito Federal,null,null,19.424648,-99.19484,https://www.ticketmaster.com.mx/banda-ms-de-sergio-lizarraga-ciudad-de-mexico-distrito-federal-12-11-2021/event/14005789A4264371,Music,Hip-Hop/Rap,2021-12-11,20:30:00,Auditorio Nacional
Ciudad de México,1afzaragkejr7pw,KovZpZA6EkkA,Banda MS de Sergio Lizarraga,null,Paseo de la Reforma # 50 Col Polanco V Sección,Ciudad de México,Distrito Federal,[{'url': 'https://www.facebook.com/BANDAMSOFICIAL'}],[{'url': 'http://www.bandams.com.mx/'}],19.424648,-99.19484,https://www.ticketmaster.com.mx/banda-ms-de-sergio-lizarraga-ciudad-de-mexico-distrito-federal-12-12-2021/event/14005789A6BC45B2,Music,Latin,2021-12-12,20:30:00,Auditorio Nacional
Ciudad de México,1av8zpkgkwhexr_,KovZpZA6EtdA,Armando Palomas Presenta: Suite Florencia,"Armando Palomas, el cantautor con un culto especial, uno de los personajes más emblemáticos del Rock Mexicano, se presentará este sábado 27 de Junio 2020 presentando su nuevo disco en el Lunario del Auditorio Nacional, recinto que se ha convertido en su casa de la Ciudad de México desde hace ya algunos años. ""Suite Florencia"" es el título de este nuevo material, el número veintiocho en su carrera, un nuevo disco cargado de honestidad, congruencia y esa nostalgia que lo caracterizan, canciones que el Cerrajero de Corazones escribió en esa Suite donde suele hospedarse, las mismas que hablan de sus fiestas y lágrimas en ese lugar, esa habitación donde lo único que está prohibido, es dormir.",Costado poniente del Auditorio Nacional frente al Campo,Ciudad de México,Distrito Federal,null,null,19.424682,-99.1954,https://www.ticketmaster.com.mx/armando-palomas-presenta-suite-florencia-ciudad-de-mexico-distrito-federal-02-05-2022/event/1400586C9B0A2799,Music,Latin,2022-02-05,21:00:00,El Lunario del Auditorio Nacional
Ciudad de México,17azvpg6uwvhyy7,KovZpZA6EkkA,Willie Colon,"Willie Colón, es un músico de salsa, cantante, compositor y activista político puertorriqueño. Comenzó su carrera como trombonista, y cantante! Regresa a México para presentarse al recinto más importante de la Ciudad ""El Auditorio Nacional"" para deleitarnos con tremendos éxitos que lo han llevado a ser The King of Salsa.",Paseo de la Reforma # 50 Col Polanco V Sección,Ciudad de México,Distrito Federal,null,null,19.424648,-99.19484,https://www.ticketmaster.com.mx/willie-colon-ciudad-de-mexico-distrito-federal-02-05-2022/event/140056DC81F30C04,Music,Latin,2022-02-05,20:30:00,Auditorio Nacional
Ciudad de México,1afza-kgkdigu9p,KovZpZA6EkkA,Lemongrass,null,Paseo de la Reforma # 50 Col Polanco V Sección,Ciudad de México,Distrito Federal,null,null,19.424648,-99.19484,https://www.ticketmaster.com.mx/lemongrass-ciudad-de-mexico-distrito-federal-02-06-2022/event/14005846E830D5D6,Music,Ballads/Romantic,2022-02-06,17:00:00,Auditorio Nacional
Ciudad de México,1afza-vgkdfsb4h,KovZpZA6EkkA,Lucero,null,Paseo de la Reforma # 50 Col Polanco V Sección,Ciudad de México,Distrito Federal,null,null,19.424648,-99.19484,https://www.ticketmaster.com.mx/lucero-ciudad-de-mexico-distrito-federal-06-18-2022/event/14005841D4CFA57C,Music,Ballads/Romantic,2022-06-18,20:30:00,Auditorio Nacional
Ciudad de México,1kazv9qagaggvn3,KovZpZA6EkkA,Sonora Dinamita de Lucho Argaín,"Llega La Sonora Dinamita de Lucho Argain al Auditorio Nacional a festejar 60 años de historia, un show único donde podrás escuchar y bailar los principales éxitos de su carrera como ""Que Bello"", ""El Viejo del Sombrerón"", ""Escándalo"", ""La Parabólica"" y muchos más, habrá grandes invitados, ¡No te lo puedes perder!",Paseo de la Reforma # 50 Col Polanco V Sección,Ciudad de México,Distrito Federal,[{'url': 'https://www.facebook.com/originalsonoradinamita'}],[{'url': 'http://www.originalsonoradinamita.com/'}],19.424648,-99.19484,https://www.ticketmaster.com.mx/sonora-dinamita-de-lucho-argain-ciudad-de-mexico-distrito-federal-09-25-2022/event/140057689C3348D2,Music,Latin,2022-09-25,18:30:00,Auditorio Nacional
México,1av8z4vgktkzc2e,KovZpZAJnJeA,Danny Ocean,"Danny Ocean es un cantante y productor venezolano de música latina con una fusión de ritmos como el pop, funk, reggae, kizomba y urbano. Desde el lanzamiento del proyecto en 2009, Ocean ha sido nominado a múltiples premios, sin embargo, el reconocimiento internacional lo alcanzó con el tema ""Me rehúso"", lanzado inicialmente de manera independiente en 2016 a través de su canal de YouTube y viralizado por Shazam y Spotify. Ocean fue el primer cantante venezolano en alcanzar las más de mil millones de reproducciones en YouTube y dos mil millones de descargas en todo el mundo en plataformas digitales. El sencillo fue certificado como séptuple platino por PROMUSICAE, lo cual le inspiró a crear una versión en inglés de la canción, llamada ""Baby I won't"". Después de su sencillo debut, Danny lanzó otros temas como ""Dembow"" y ""Vuelve"", así como el sencillo producido por Skrillex, ""Epa Wei"" y ""Looking for"" junto a Digital Farm Animals.",Juan Escutia #4 Col. Condesa,México,Distrito Federal,null,null,19.4149494,-99.1750336,https://www.ticketmaster.com.mx/danny-ocean-mexico-distrito-federal-07-21-2021/event/1400574FC6E2D3E7,Music,Latin,2021-07-21,21:00:00,El Plaza Condesa
México,1av8zp8gkmtievr,KovZpZAJnJeA,Danny Ocean,"Danny Ocean es un cantante y productor venezolano de música latina con una fusión de ritmos como el pop, funk, reggae, kizomba y urbano. Desde el lanzamiento del proyecto en 2009, Ocean ha sido nominado a múltiples premios, sin embargo, el reconocimiento internacional lo alcanzó con el tema ""Me rehúso"", lanzado inicialmente de manera independiente en 2016 a través de su canal de YouTube y viralizado por Shazam y Spotify. Ocean fue el primer cantante venezolano en alcanzar las más de mil millones de reproducciones en YouTube y dos mil millones de descargas en todo el mundo en plataformas digitales. El sencillo fue certificado como séptuple platino por PROMUSICAE, lo cual le inspiró a crear una versión en inglés de la canción, llamada ""Baby I won't"". Después de su sencillo debut, Danny lanzó otros temas como ""Dembow"" y ""Vuelve"", así como el sencillo producido por Skrillex, ""Epa Wei"" y ""Looking for"" junto a Digital Farm Animals.",Juan Escutia #4 Col. Condesa,México,Distrito Federal,null,null,19.4149494,-99.1750336,https://www.ticketmaster.com.mx/danny-ocean-mexico-distrito-federal-07-22-2021/event/1400590DE9A02D1E,Music,Latin,2021-07-22,21:00:00,El Plaza Condesa
México,1afza-0gkemisbq,KovZpZAJnJeA,"Daniel, me estas matando",null,Juan Escutia #4 Col. Condesa,México,Distrito Federal,null,null,19.4149494,-99.1750336,https://www.ticketmaster.com.mx/daniel-me-estas-matando-mexico-distrito-federal-09-05-2021/event/14005864AEB33E9A,Music,World,2021-09-05,21:00:00,El Plaza Condesa
México,1kazvbfwgauhso1,KovZpZAJnJeA,Luciano Pereyra,null,Juan Escutia #4 Col. Condesa,México,Distrito Federal,null,null,19.4149494,-99.1750336,https://www.ticketmaster.com.mx/luciano-pereyra-mexico-distrito-federal-03-19-2022/event/140058532DF3180A,Music,Latin,2022-03-19,20:30:00,El Plaza Condesa
México,g5v8zpn8-a4j2,KovZpZAJkdkA,Evento de prueba,null,Calle Lucerna. No. 64 Esquina con calle Milán,México,Distrito Federal,null,null,19.42995,-99.156697,https://www.ticketmaster.com.mx/evento-de-prueba-mexico-distrito-federal-12-31-2021/event/14005AA42115570F,Music,Undefined,2021-12-31,12:00:00,Teatro Milán
México,1av8zpagkil5es_,KovZpZAJllnA,Global Ska Fest,"Para abrir boca de este gran menú musical, se presentará una de las máximas leyendas del 2 Tone, Bad Manners, liderado por el carismático cantante Buster Bloodvessel. Provenientes de la tierra del sonido rastafari, Jamaica, llegarán The Skatalites quienes al ritmo de ska, reggae, rocksteady y dancehall pondrán a bailar a todos. La lista de talento continúa con la presencia del cantante e ícono jamaiquino, con 5 décadas de excepcional carrera musical, Stranger Cole. También, estarán presentes la New York Ska Jazz Ensemble quienes fieles a su tradicional ritmo, armarán el baile a lo grande. Asimismo, aterrizará en nuestro país, por vez primera, la OBMJ, la Orquesta Brasileira de Musica Jamaicana. Oriundos de Colombia, La Toma llegará con todo su arsenal sonoro para poner a mover el cuerpo hasta al más incauto. Mientras que por El Salvador estarán presentes los Blue Beat Makers. El talento nacional estará encabezado por la mejor banda de ska de Monterrey, Inspector.","Dakota S/N, Colonia Nápoles",México,Distrito Federal,null,null,19.3934097,-99.1758118,https://www.ticketmaster.com.mx/global-ska-fest-mexico-distrito-federal-11-06-2021/event/1400585A1F2E7CD9,Music,Other,2021-11-06,12:00:00,Pepsi Center WTC
México,g5v8zpn61ngo8,KovZpZAJkdkA,Puras Cosas Maravillosas,"Tienes siete años. Tu mamá está en el hospital. Tu papá dice que ella hizo algo estúpido. A ella le cuesta trabajo ser feliz. Entonces tú empiezas a hacer una lista de todas las cosas maravillosas que hay en el mundo, todo por lo que vale la pena vivir. La dejas sobre su almohada y sabes que la leyó porque corrigió la ortografía. La lista tendrá vida propia en una obra sobre lo que somos capaces de hacer por los que amamos.",Calle Lucerna. No. 64 Esquina con calle Milán,México,Distrito Federal,null,null,19.42995,-99.156697,https://www.ticketmaster.com.mx/puras-cosas-maravillosas-mexico-distrito-federal-07-13-2021/event/14005AA1CA8F5450,Arts & Theatre,Comedy,2021-07-13,20:00:00,Teatro Milán
México,g5v8zpn610ao3,KovZpZAJkdkA,Puras Cosas Maravillosas,"Tienes siete años. Tu mamá está en el hospital. Tu papá dice que ella hizo algo estúpido. A ella le cuesta trabajo ser feliz. Entonces tú empiezas a hacer una lista de todas las cosas maravillosas que hay en el mundo, todo por lo que vale la pena vivir. La dejas sobre su almohada y sabes que la leyó porque corrigió la ortografía. La lista tendrá vida propia en una obra sobre lo que somos capaces de hacer por los que amamos.",Calle Lucerna. No. 64 Esquina con calle Milán,México,Distrito Federal,null,null,19.42995,-99.156697,https://www.ticketmaster.com.mx/puras-cosas-maravillosas-mexico-distrito-federal-07-20-2021/event/14005AA1CA905452,Arts & Theatre,Comedy,2021-07-20,20:00:00,Teatro Milán
México,g5v8zpn610ao4,KovZpZAJkdkA,Puras Cosas Maravillosas,"Tienes siete años. Tu mamá está en el hospital. Tu papá dice que ella hizo algo estúpido. A ella le cuesta trabajo ser feliz. Entonces tú empiezas a hacer una lista de todas las cosas maravillosas que hay en el mundo, todo por lo que vale la pena vivir. La dejas sobre su almohada y sabes que la leyó porque corrigió la ortografía. La lista tendrá vida propia en una obra sobre lo que somos capaces de hacer por los que amamos.",Calle Lucerna. No. 64 Esquina con calle Milán,México,Distrito Federal,null,null,19.42995,-99.156697,https://www.ticketmaster.com.mx/puras-cosas-maravillosas-mexico-distrito-federal-07-27-2021/event/14005AA1CA905455,Arts & Theatre,Comedy,2021-07-27,20:00:00,Teatro Milán
México,g5v8zpn610aob,KovZpZAJkdkA,Puras Cosas Maravillosas,"Tienes siete años. Tu mamá está en el hospital. Tu papá dice que ella hizo algo estúpido. A ella le cuesta trabajo ser feliz. Entonces tú empiezas a hacer una lista de todas las cosas maravillosas que hay en el mundo, todo por lo que vale la pena vivir. La dejas sobre su almohada y sabes que la leyó porque corrigió la ortografía. La lista tendrá vida propia en una obra sobre lo que somos capaces de hacer por los que amamos.",Calle Lucerna. No. 64 Esquina con calle Milán,México,Distrito Federal,null,null,19.42995,-99.156697,https://www.ticketmaster.com.mx/puras-cosas-maravillosas-mexico-distrito-federal-08-03-2021/event/14005AA1CA905458,Arts & Theatre,Comedy,2021-08-03,20:00:00,Teatro Milán
México,1av8zp7gki-qtpy,KovZpZA6JttA,"Iliza Shlesinger, Iliza: Back In Action Tour","Iliza es una de las principales comediantes de hoy en día con una base de fanáticos que muestran su lealtad al crear su propias playeras y mercancía inspirada en Iliza para usarla en sus shows. Su quinto especial de stand up de Netflix, UnVeiled, se estrenó en noviembre de 2019 y profundiza en su proceso de matrimonio. Sus especiales anteriores incluyen War Paint, Freezing Hot y Confirmed Kills. Su anterior especial de Netflix, Elder Millennial de 2018, es el tema del documental: Iliza Shlesinger: Over & Over, que actualmente se está transmitiendo y les da a los fanáticos una visión interna de lo que se necesita para hacer uno de sus especiales.","Independencia #90 Col. Centro, entre las calles de Balderas",México,Distrito Federal,null,null,19.433457,-99.146811,https://www.ticketmaster.com.mx/iliza-shlesinger-iliza-back-in-action-mexico-distrito-federal-12-10-2021/event/1400584B2177F5B9,Arts & Theatre,Comedy,2021-12-10,21:00:00,Teatro Metropolitan
México,g5v8zpi3uhp5i,KovZpZAJt6eA,Una mujer extraordinaria atrapada en una vida ordinaria,"Esta comedia, retrata la situación clásica de una ama de casa enclaustrada y aburrida. Esta mujer, nos va mostrando poco a poco su muy pequeño mundo, del que sólo forman parte, una pared, la de su cocina, que se ha convertido en su mejor confidente; un marido autoritario, machista, maniático y egoísta; y dos hijos que ya no la necesitan más, pues ya ha terminado de criarlos. A los cincuenta, está cansada de vivir una vida pequeña, frustrada, sin ilusiones por no haber realizado sus sueños, sin vivir profundamente, cuando en su interior había lugar para mucho más. Una vida desperdiciada, piensa.",Rosas Moreno #71 Col. San Rafael,México,Distrito Federal,null,null,19.4377708,-99.1616287,https://www.ticketmaster.com.mx/una-mujer-extraordinaria-atrapada-en-una-mexico-distrito-federal-07-08-2021/event/14005AC4B66D62EC,Arts & Theatre,Theatre,2021-07-08,20:00:00,Teatro Aldama
México,g5v8zptlpn0ll,KovZpZAJt6eA,Agotados con Alex Fernandez,"Sam (Alex Fernandez) es un actor en ascenso. En lo que sus sueños se logran, hoy tiene la fortuna de trabajar atendiendo el teléfono de reservaciones del restaurante más hot de Ciudad de México. Pero para Sam este trabajo no es afortunado, ya que debe atender a más de 40 comensales que le llamarán con un solo objetivo: conseguir una mesa en Le Mexique. Y para lograrlo usarán todas sus influencias para impresionar (o torturar, si es necesario) al pobre Sam. Agotados es la comedia sobre un actor con el corazón roto, quebrado económicamente, con un padre chantajista y en espera de la audición que le cambie su vida. Una obra con más de 40 personajes, un gato y muchas, muchas llamadas telefónicas.",Rosas Moreno #71 Col. San Rafael,México,Distrito Federal,null,null,19.4377708,-99.1616287,https://www.ticketmaster.com.mx/agotados-con-alex-fernandez-mexico-distrito-federal-07-10-2021/event/14005A9AD6AA47EB,Arts & Theatre,Theatre,2021-07-10,17:30:00,Teatro Aldama
México,g5v8zptlpnvlv,KovZpZAJt6eA,Agotados con Alex Fernandez,"Sam (Alex Fernandez) es un actor en ascenso. En lo que sus sueños se logran, hoy tiene la fortuna de trabajar atendiendo el teléfono de reservaciones del restaurante más hot de Ciudad de México. Pero para Sam este trabajo no es afortunado, ya que debe atender a más de 40 comensales que le llamarán con un solo objetivo: conseguir una mesa en Le Mexique. Y para lograrlo usarán todas sus influencias para impresionar (o torturar, si es necesario) al pobre Sam. Agotados es la comedia sobre un actor con el corazón roto, quebrado económicamente, con un padre chantajista y en espera de la audición que le cambie su vida. Una obra con más de 40 personajes, un gato y muchas, muchas llamadas telefónicas.",Rosas Moreno #71 Col. San Rafael,México,Distrito Federal,null,null,19.4377708,-99.1616287,https://www.ticketmaster.com.mx/agotados-con-alex-fernandez-mexico-distrito-federal-07-10-2021/event/14005A9AD6AB47F4,Arts & Theatre,Theatre,2021-07-10,20:00:00,Teatro Aldama
México,g5v8zptlpnflb,KovZpZAJt6eA,Agotados con Alex Fernandez,"Sam (Alex Fernandez) es un actor en ascenso. En lo que sus sueños se logran, hoy tiene la fortuna de trabajar atendiendo el teléfono de reservaciones del restaurante más hot de Ciudad de México. Pero para Sam este trabajo no es afortunado, ya que debe atender a más de 40 comensales que le llamarán con un solo objetivo: conseguir una mesa en Le Mexique. Y para lograrlo usarán todas sus influencias para impresionar (o torturar, si es necesario) al pobre Sam. Agotados es la comedia sobre un actor con el corazón roto, quebrado económicamente, con un padre chantajista y en espera de la audición que le cambie su vida. Una obra con más de 40 personajes, un gato y muchas, muchas llamadas telefónicas.",Rosas Moreno #71 Col. San Rafael,México,Distrito Federal,null,null,19.4377708,-99.1616287,https://www.ticketmaster.com.mx/agotados-con-alex-fernandez-mexico-distrito-federal-07-09-2021/event/14005A9AD6A947D8,Arts & Theatre,Theatre,2021-07-09,20:00:00,Teatro Aldama
México,g5v8zptlpgvlx,KovZpZAJt6eA,Agotados con Alex Fernandez,"Sam (Alex Fernandez) es un actor en ascenso. En lo que sus sueños se logran, hoy tiene la fortuna de trabajar atendiendo el teléfono de reservaciones del restaurante más hot de Ciudad de México. Pero para Sam este trabajo no es afortunado, ya que debe atender a más de 40 comensales que le llamarán con un solo objetivo: conseguir una mesa en Le Mexique. Y para lograrlo usarán todas sus influencias para impresionar (o torturar, si es necesario) al pobre Sam. Agotados es la comedia sobre un actor con el corazón roto, quebrado económicamente, con un padre chantajista y en espera de la audición que le cambie su vida. Una obra con más de 40 personajes, un gato y muchas, muchas llamadas telefónicas.",Rosas Moreno #71 Col. San Rafael,México,Distrito Federal,null,null,19.4377708,-99.1616287,https://www.ticketmaster.com.mx/agotados-con-alex-fernandez-mexico-distrito-federal-07-11-2021/event/14005A9AD6D747FE,Arts & Theatre,Theatre,2021-07-11,18:00:00,Teatro Aldama
México,g5v8zpi3uhj5m,KovZpZAJt6eA,Una mujer extraordinaria atrapada en una vida ordinaria,"Esta comedia, retrata la situación clásica de una ama de casa enclaustrada y aburrida. Esta mujer, nos va mostrando poco a poco su muy pequeño mundo, del que sólo forman parte, una pared, la de su cocina, que se ha convertido en su mejor confidente; un marido autoritario, machista, maniático y egoísta; y dos hijos que ya no la necesitan más, pues ya ha terminado de criarlos. A los cincuenta, está cansada de vivir una vida pequeña, frustrada, sin ilusiones por no haber realizado sus sueños, sin vivir profundamente, cuando en su interior había lugar para mucho más. Una vida desperdiciada, piensa.",Rosas Moreno #71 Col. San Rafael,México,Distrito Federal,null,null,19.4377708,-99.1616287,https://www.ticketmaster.com.mx/una-mujer-extraordinaria-atrapada-en-una-mexico-distrito-federal-07-15-2021/event/14005AC4B66E62EE,Arts & Theatre,Theatre,2021-07-15,20:00:00,Teatro Aldama
México,g5v8zptlpu7oe,KovZpZAJt6eA,Agotados con Alex Fernandez,"Sam (Alex Fernandez) es un actor en ascenso. En lo que sus sueños se logran, hoy tiene la fortuna de trabajar atendiendo el teléfono de reservaciones del restaurante más hot de Ciudad de México. Pero para Sam este trabajo no es afortunado, ya que debe atender a más de 40 comensales que le llamarán con un solo objetivo: conseguir una mesa en Le Mexique. Y para lograrlo usarán todas sus influencias para impresionar (o torturar, si es necesario) al pobre Sam. Agotados es la comedia sobre un actor con el corazón roto, quebrado económicamente, con un padre chantajista y en espera de la audición que le cambie su vida. Una obra con más de 40 personajes, un gato y muchas, muchas llamadas telefónicas.",Rosas Moreno #71 Col. San Rafael,México,Distrito Federal,null,null,19.4377708,-99.1616287,https://www.ticketmaster.com.mx/agotados-con-alex-fernandez-mexico-distrito-federal-07-16-2021/event/14005A9AD6D84802,Arts & Theatre,Theatre,2021-07-16,20:00:00,Teatro Aldama
México,g5v8zptlpu7o6,KovZpZAJt6eA,Agotados con Alex Fernandez,"Sam (Alex Fernandez) es un actor en ascenso. En lo que sus sueños se logran, hoy tiene la fortuna de trabajar atendiendo el teléfono de reservaciones del restaurante más hot de Ciudad de México. Pero para Sam este trabajo no es afortunado, ya que debe atender a más de 40 comensales que le llamarán con un solo objetivo: conseguir una mesa en Le Mexique. Y para lograrlo usarán todas sus influencias para impresionar (o torturar, si es necesario) al pobre Sam. Agotados es la comedia sobre un actor con el corazón roto, quebrado económicamente, con un padre chantajista y en espera de la audición que le cambie su vida. Una obra con más de 40 personajes, un gato y muchas, muchas llamadas telefónicas.",Rosas Moreno #71 Col. San Rafael,México,Distrito Federal,null,null,19.4377708,-99.1616287,https://www.ticketmaster.com.mx/agotados-con-alex-fernandez-mexico-distrito-federal-07-17-2021/event/14005A9AD6D84807,Arts & Theatre,Theatre,2021-07-17,17:30:00,Teatro Aldama
México,g5v8zptlpufog,KovZpZAJt6eA,Agotados con Alex Fernandez,"Sam (Alex Fernandez) es un actor en ascenso. En lo que sus sueños se logran, hoy tiene la fortuna de trabajar atendiendo el teléfono de reservaciones del restaurante más hot de Ciudad de México. Pero para Sam este trabajo no es afortunado, ya que debe atender a más de 40 comensales que le llamarán con un solo objetivo: conseguir una mesa en Le Mexique. Y para lograrlo usarán todas sus influencias para impresionar (o torturar, si es necesario) al pobre Sam. Agotados es la comedia sobre un actor con el corazón roto, quebrado económicamente, con un padre chantajista y en espera de la audición que le cambie su vida. Una obra con más de 40 personajes, un gato y muchas, muchas llamadas telefónicas.",Rosas Moreno #71 Col. San Rafael,México,Distrito Federal,null,null,19.4377708,-99.1616287,https://www.ticketmaster.com.mx/agotados-con-alex-fernandez-mexico-distrito-federal-07-17-2021/event/14005A9AD6D9480C,Arts & Theatre,Theatre,2021-07-17,20:00:00,Teatro Aldama
México,g5v8zptlpufo8,KovZpZAJt6eA,Agotados con Alex Fernandez,"Sam (Alex Fernandez) es un actor en ascenso. En lo que sus sueños se logran, hoy tiene la fortuna de trabajar atendiendo el teléfono de reservaciones del restaurante más hot de Ciudad de México. Pero para Sam este trabajo no es afortunado, ya que debe atender a más de 40 comensales que le llamarán con un solo objetivo: conseguir una mesa en Le Mexique. Y para lograrlo usarán todas sus influencias para impresionar (o torturar, si es necesario) al pobre Sam. Agotados es la comedia sobre un actor con el corazón roto, quebrado económicamente, con un padre chantajista y en espera de la audición que le cambie su vida. Una obra con más de 40 personajes, un gato y muchas, muchas llamadas telefónicas.",Rosas Moreno #71 Col. San Rafael,México,Distrito Federal,null,null,19.4377708,-99.1616287,https://www.ticketmaster.com.mx/agotados-con-alex-fernandez-mexico-distrito-federal-07-18-2021/event/14005A9AD6D94810,Arts & Theatre,Theatre,2021-07-18,18:00:00,Teatro Aldama
México,g5v8zpi3uhj5s,KovZpZAJt6eA,Una mujer extraordinaria atrapada en una vida ordinaria,"Esta comedia, retrata la situación clásica de una ama de casa enclaustrada y aburrida. Esta mujer, nos va mostrando poco a poco su muy pequeño mundo, del que sólo forman parte, una pared, la de su cocina, que se ha convertido en su mejor confidente; un marido autoritario, machista, maniático y egoísta; y dos hijos que ya no la necesitan más, pues ya ha terminado de criarlos. A los cincuenta, está cansada de vivir una vida pequeña, frustrada, sin ilusiones por no haber realizado sus sueños, sin vivir profundamente, cuando en su interior había lugar para mucho más. Una vida desperdiciada, piensa.",Rosas Moreno #71 Col. San Rafael,México,Distrito Federal,null,null,19.4377708,-99.1616287,https://www.ticketmaster.com.mx/una-mujer-extraordinaria-atrapada-en-una-mexico-distrito-federal-07-22-2021/event/14005AC4B66E62F1,Arts & Theatre,Theatre,2021-07-22,20:00:00,Teatro Aldama
México,g5v8zptlpu0ok,KovZpZAJt6eA,Agotados con Chumel Torres,"Sam (Chumel Torres) es un actor en ascenso. En lo que sus sueños se logran, hoy tiene la fortuna de trabajar atendiendo el teléfono de reservaciones del restaurante más hot de Ciudad de México. Pero para Sam este trabajo no es afortunado, ya que debe atender a más de 40 comensales que le llamarán con un solo objetivo: conseguir una mesa en Le Mexique. Y para lograrlo usarán todas sus influencias para impresionar (o torturar, si es necesario) al pobre Sam. Agotados es la comedia sobre un actor con el corazón roto, quebrado económicamente, con un padre chantajista y en espera de la audición que le cambie su vida. Una obra con más de 40 personajes, un gato y muchas, muchas llamadas telefónicas.",Rosas Moreno #71 Col. San Rafael,México,Distrito Federal,null,null,19.4377708,-99.1616287,https://www.ticketmaster.com.mx/agotados-con-chumel-torres-mexico-distrito-federal-07-23-2021/event/14005A9AD6DA4813,Arts & Theatre,Theatre,2021-07-23,20:00:00,Teatro Aldama
México,g5v8zptlpuvol,KovZpZAJt6eA,Agotados con Chumel Torres,"Sam (Chumel Torres) es un actor en ascenso. En lo que sus sueños se logran, hoy tiene la fortuna de trabajar atendiendo el teléfono de reservaciones del restaurante más hot de Ciudad de México. Pero para Sam este trabajo no es afortunado, ya que debe atender a más de 40 comensales que le llamarán con un solo objetivo: conseguir una mesa en Le Mexique. Y para lograrlo usarán todas sus influencias para impresionar (o torturar, si es necesario) al pobre Sam. Agotados es la comedia sobre un actor con el corazón roto, quebrado económicamente, con un padre chantajista y en espera de la audición que le cambie su vida. Una obra con más de 40 personajes, un gato y muchas, muchas llamadas telefónicas.",Rosas Moreno #71 Col. San Rafael,México,Distrito Federal,null,null,19.4377708,-99.1616287,https://www.ticketmaster.com.mx/agotados-con-chumel-torres-mexico-distrito-federal-07-24-2021/event/14005A9AD6DB481F,Arts & Theatre,Theatre,2021-07-24,19:30:00,Teatro Aldama
México,g5v8zptlphfob,KovZpZAJt6eA,Agotados con Chumel Torres,"Sam (Chumel Torres) es un actor en ascenso. En lo que sus sueños se logran, hoy tiene la fortuna de trabajar atendiendo el teléfono de reservaciones del restaurante más hot de Ciudad de México. Pero para Sam este trabajo no es afortunado, ya que debe atender a más de 40 comensales que le llamarán con un solo objetivo: conseguir una mesa en Le Mexique. Y para lograrlo usarán todas sus influencias para impresionar (o torturar, si es necesario) al pobre Sam. Agotados es la comedia sobre un actor con el corazón roto, quebrado económicamente, con un padre chantajista y en espera de la audición que le cambie su vida. Una obra con más de 40 personajes, un gato y muchas, muchas llamadas telefónicas.",Rosas Moreno #71 Col. San Rafael,México,Distrito Federal,null,null,19.4377708,-99.1616287,https://www.ticketmaster.com.mx/agotados-con-chumel-torres-mexico-distrito-federal-07-25-2021/event/14005A9AD6F1483A,Arts & Theatre,Theatre,2021-07-25,18:00:00,Teatro Aldama
México,g5v8zpi3rckfz,KovZpZAJl1EA,MyST: Abrázame NUEVO SHOW EN ESPAÑOL,"Después de un año de pandemia regresamos a los escenarios con más energía que nunca. ABRÁZAME es la nueva producción de MYST con los éxitos en español que todos esperaban después del éxito de Viviendo de noche. Déjate abrazar por la música y vuelve a vivir al máximo la noche en la CDMX con esta experiencia en la que la orquesta en vivo, los cantantes, las bailarinas y los bailarines te harán perder la cordura. Más de 100 hits en tres actos, son el pretexto para volver a cantar y bailar. Pato Borghetti, Cecilia de la Cueva, Sofía Garza, Menny Carrasco, Vince Miranda, Alex Brizuela, Oskar Jiménez y Denisha entre otros te harán vibrar de emoción. Hana Koo, Victoria Carabajal, Dio Ondares, Nacho Pereda y Russell Arriaga te harán levantar de tu asiento. Producen María Laura Medina de Salinas, Memo Alegret, Alexis Lippert, Chacho Gaytán y Felipe Fernández del Paso. Déjate abrazar por MYST *con todas las medidas de protección.","Av. Ejercito Nacional # 843 B, Piso 1 Local 104",México,Distrito Federal,null,null,19.4390793,-99.2092972,https://www.ticketmaster.com.mx/myst-abrazame-nuevo-show-en-espanol-mexico-distrito-federal-07-09-2021/event/14005AC4AF386200,Arts & Theatre,Theatre,2021-07-09,20:00:00,Foro 1 Totalplay
Ciudad de México,1av8zp7gks5lphx,KovZpZA6EtdA,UDLAP Presenta: Bluecheese,Sin información,Costado poniente del Auditorio Nacional frente al Campo,Ciudad de México,Distrito Federal,null,null,19.424682,-99.1954,https://www.ticketmaster.com.mx/udlap-presenta-bluecheese-ciudad-de-mexico-distrito-federal-08-12-2021/event/1400584C4B7E5F3E,Arts & Theatre,Classical,2021-08-12,20:00:00,El Lunario del Auditorio Nacional
Ciudad de México,1av8zp7gkuf_sun,KovZpZA6EtdA,La Mujer Que Cayo Del Cielo,null,Costado poniente del Auditorio Nacional frente al Campo,Ciudad de México,Distrito Federal,null,null,19.424682,-99.1954,https://www.ticketmaster.com.mx/la-mujer-que-cayo-del-cielo-ciudad-de-mexico-distrito-federal-09-23-2021/event/1400584D88671DAA,Arts & Theatre,Theatre,2021-09-23,20:00:00,El Lunario del Auditorio Nacional
Ciudad de México,1av8zp7gks17gd8,KovZpZA6EtdA,UDLAP Presenta: Mozartísimo Noche de Opera,Sin información,Costado poniente del Auditorio Nacional frente al Campo,Ciudad de México,Distrito Federal,null,null,19.424682,-99.1954,https://www.ticketmaster.com.mx/udlap-presenta-mozartisimo-noche-de-opera-ciudad-de-mexico-distrito-federal-10-21-2021/event/1400584C4A135ED0,Arts & Theatre,Classical,2021-10-21,20:00:00,El Lunario del Auditorio Nacional
México,g5v8zplxkcee6,KovZpZA6JlAA,La Fundamentalista,"De: Juha Jokela. Dirección: Ignacio Garcia. Con: Aurora Cano y Luis de Tavira. Sinopsis: Un pastor liberal y una mujer que pertenece a una secta fundamentalista se reencuentran después de 20 años e intentan salvarse mutuamente, pero quedan atrapados en un amor pasional que les cambia la vida sin que al parecer se salven de nada ninguno de los dos.","Centro Cultural del Bosque,Paseo de la Reforma y Campo Marte",México,Distrito Federal,null,null,19.423374,-99.19541,https://www.ticketmaster.com.mx/la-fundamentalista-mexico-distrito-federal-07-08-2021/event/14005AB886382087,Arts & Theatre,Theatre,2021-07-08,20:00:00,Teatro del Bosque - Julio Castillo
México,g5v8zplxkceee,KovZpZA6JlAA,La Fundamentalista,"De: Juha Jokela. Dirección: Ignacio Garcia. Con: Aurora Cano y Luis de Tavira. Sinopsis: Un pastor liberal y una mujer que pertenece a una secta fundamentalista se reencuentran después de 20 años e intentan salvarse mutuamente, pero quedan atrapados en un amor pasional que les cambia la vida sin que al parecer se salven de nada ninguno de los dos.","Centro Cultural del Bosque,Paseo de la Reforma y Campo Marte",México,Distrito Federal,null,null,19.423374,-99.19541,https://www.ticketmaster.com.mx/la-fundamentalista-mexico-distrito-federal-07-09-2021/event/14005AB8863820A7,Arts & Theatre,Theatre,2021-07-09,20:00:00,Teatro del Bosque - Julio Castillo
México,g5v8zplxkceeu,KovZpZA6JlAA,La Fundamentalista,"De: Juha Jokela. Dirección: Ignacio Garcia. Con: Aurora Cano y Luis de Tavira. Sinopsis: Un pastor liberal y una mujer que pertenece a una secta fundamentalista se reencuentran después de 20 años e intentan salvarse mutuamente, pero quedan atrapados en un amor pasional que les cambia la vida sin que al parecer se salven de nada ninguno de los dos.","Centro Cultural del Bosque,Paseo de la Reforma y Campo Marte",México,Distrito Federal,null,null,19.423374,-99.19541,https://www.ticketmaster.com.mx/la-fundamentalista-mexico-distrito-federal-07-10-2021/event/14005AB8863820B6,Arts & Theatre,Theatre,2021-07-10,19:00:00,Teatro del Bosque - Julio Castillo
México,g5v8zplxkcedf,KovZpZA6JlAA,La Fundamentalista,"De: Juha Jokela. Dirección: Ignacio Garcia. Con: Aurora Cano y Luis de Tavira. Sinopsis: Un pastor liberal y una mujer que pertenece a una secta fundamentalista se reencuentran después de 20 años e intentan salvarse mutuamente, pero quedan atrapados en un amor pasional que les cambia la vida sin que al parecer se salven de nada ninguno de los dos.","Centro Cultural del Bosque,Paseo de la Reforma y Campo Marte",México,Distrito Federal,null,null,19.423374,-99.19541,https://www.ticketmaster.com.mx/la-fundamentalista-mexico-distrito-federal-07-11-2021/event/14005AB8863820C8,Arts & Theatre,Theatre,2021-07-11,18:00:00,Teatro del Bosque - Julio Castillo
México,g5v8zplx5b3ou,KovZpZA6Jl7A,Los hombres lobo viven en mi closet,"De: Oz Jimenez. Dirección: Juan Carlos Roldan. Con: Santiago Villalpando, Victor Hugo Reyes, Claudia Bernardi, Enrique Monzuazo, Isalia Arvizu, Cyprien Durand, Sergio Robledo, Elizabet Arsa. Sinopsis: A través de los ojos de Farid, viviremos un viaje de aceptación, en el que cada aventura nos enseñara que nuestras particularidades nos hacen únicos; eso es algo para celebrar y respetar, sin importar si eres minotauro, vampiro, bruja, hombre lobo o incluso si vives fuera del closet.","Centro Cultural del Bosque,Paseo de la Reforma y Campo Marte",México,Distrito Federal,null,null,19.424004,-99.19482,https://www.ticketmaster.com.mx/los-hombres-lobo-viven-en-mi-mexico-distrito-federal-07-10-2021/event/14005AB88B61280D,Arts & Theatre,Theatre,2021-07-10,13:00:00,"Teatro El Galeón, Abraham Oceransky"
México,g5v8zplx5bxoj,KovZpZA6Jl7A,Los hombres lobo viven en mi closet,"De: Oz Jimenez. Dirección: Juan Carlos Roldan. Con: Santiago Villalpando, Victor Hugo Reyes, Claudia Bernardi, Enrique Monzuazo, Isalia Arvizu, Cyprien Durand, Sergio Robledo, Elizabet Arsa. Sinopsis: A través de los ojos de Farid, viviremos un viaje de aceptación, en el que cada aventura nos enseñara que nuestras particularidades nos hacen únicos; eso es algo para celebrar y respetar, sin importar si eres minotauro, vampiro, bruja, hombre lobo o incluso si vives fuera del closet.","Centro Cultural del Bosque,Paseo de la Reforma y Campo Marte",México,Distrito Federal,null,null,19.424004,-99.19482,https://www.ticketmaster.com.mx/los-hombres-lobo-viven-en-mi-mexico-distrito-federal-07-11-2021/event/14005AB88B622826,Arts & Theatre,Theatre,2021-07-11,13:00:00,"Teatro El Galeón, Abraham Oceransky"
México,g5v8zplx6v3fn,KovZpZA6Jl7A,Flores negras del destino nos apartan,"Basada en la novela Canción de Tumba de Julián Herbert. Dirección: Belén Aguilar. Con: Lorena Glinz y José Juan Sánchez. Sinopsis: Guadalupe, una antigua trabajadora sexual, lucha contra el cáncer en una cama de hospital. A su lado, su hijo, un artista conflictuado, emprende un viaje a través de la memoria. Un dibujo a mano alzada lleno de ternura y crueldad; un vaivén emocional que despliega la compleja relación entre madre e hijo a través de los años.","Centro Cultural del Bosque,Paseo de la Reforma y Campo Marte",México,Distrito Federal,null,null,19.424004,-99.19482,https://www.ticketmaster.com.mx/flores-negras-del-destino-nos-apartan-mexico-distrito-federal-07-12-2021/event/14005AB88705252A,Arts & Theatre,Theatre,2021-07-12,20:00:00,"Teatro El Galeón, Abraham Oceransky"
México,g5v8zplx6v3fc,KovZpZA6Jl7A,Flores negras del destino nos apartan,"Basada en la novela Canción de Tumba de Julián Herbert. Dirección: Belén Aguilar. Con: Lorena Glinz y José Juan Sánchez. Sinopsis: Guadalupe, una antigua trabajadora sexual, lucha contra el cáncer en una cama de hospital. A su lado, su hijo, un artista conflictuado, emprende un viaje a través de la memoria. Un dibujo a mano alzada lleno de ternura y crueldad; un vaivén emocional que despliega la compleja relación entre madre e hijo a través de los años.","Centro Cultural del Bosque,Paseo de la Reforma y Campo Marte",México,Distrito Federal,null,null,19.424004,-99.19482,https://www.ticketmaster.com.mx/flores-negras-del-destino-nos-apartan-mexico-distrito-federal-07-13-2021/event/14005AB88705252D,Arts & Theatre,Theatre,2021-07-13,20:00:00,"Teatro El Galeón, Abraham Oceransky"
México,g5v8zplx5bx-l,KovZpZA6Jl7A,Los hombres lobo viven en mi closet,"De: Oz Jimenez. Dirección: Juan Carlos Roldan. Con: Santiago Villalpando, Victor Hugo Reyes, Claudia Bernardi, Enrique Monzuazo, Isalia Arvizu, Cyprien Durand, Sergio Robledo, Elizabet Arsa. Sinopsis: A través de los ojos de Farid, viviremos un viaje de aceptación, en el que cada aventura nos enseñara que nuestras particularidades nos hacen únicos; eso es algo para celebrar y respetar, sin importar si eres minotauro, vampiro, bruja, hombre lobo o incluso si vives fuera del closet.","Centro Cultural del Bosque,Paseo de la Reforma y Campo Marte",México,Distrito Federal,null,null,19.424004,-99.19482,https://www.ticketmaster.com.mx/los-hombres-lobo-viven-en-mi-mexico-distrito-federal-07-17-2021/event/14005AB88B62285F,Arts & Theatre,Theatre,2021-07-17,13:00:00,"Teatro El Galeón, Abraham Oceransky"
México,g5v8zplx5bx-w,KovZpZA6Jl7A,Los hombres lobo viven en mi closet,"De: Oz Jimenez. Dirección: Juan Carlos Roldan. Con: Santiago Villalpando, Victor Hugo Reyes, Claudia Bernardi, Enrique Monzuazo, Isalia Arvizu, Cyprien Durand, Sergio Robledo, Elizabet Arsa. Sinopsis: A través de los ojos de Farid, viviremos un viaje de aceptación, en el que cada aventura nos enseñara que nuestras particularidades nos hacen únicos; eso es algo para celebrar y respetar, sin importar si eres minotauro, vampiro, bruja, hombre lobo o incluso si vives fuera del closet.","Centro Cultural del Bosque,Paseo de la Reforma y Campo Marte",México,Distrito Federal,null,null,19.424004,-99.19482,https://www.ticketmaster.com.mx/los-hombres-lobo-viven-en-mi-mexico-distrito-federal-07-18-2021/event/14005AB88B622872,Arts & Theatre,Theatre,2021-07-18,13:00:00,"Teatro El Galeón, Abraham Oceransky"
México,g5v8zplx6v346,KovZpZA6Jl7A,Flores negras del destino nos apartan,"Basada en la novela Canción de Tumba de Julián Herbert. Dirección: Belén Aguilar. Con: Lorena Glinz y José Juan Sánchez. Sinopsis: Guadalupe, una antigua trabajadora sexual, lucha contra el cáncer en una cama de hospital. A su lado, su hijo, un artista conflictuado, emprende un viaje a través de la memoria. Un dibujo a mano alzada lleno de ternura y crueldad; un vaivén emocional que despliega la compleja relación entre madre e hijo a través de los años.","Centro Cultural del Bosque,Paseo de la Reforma y Campo Marte",México,Distrito Federal,null,null,19.424004,-99.19482,https://www.ticketmaster.com.mx/flores-negras-del-destino-nos-apartan-mexico-distrito-federal-07-19-2021/event/14005AB887052547,Arts & Theatre,Theatre,2021-07-19,20:00:00,"Teatro El Galeón, Abraham Oceransky"
México,g5v8zplx6v34r,KovZpZA6Jl7A,Flores negras del destino nos apartan,"Basada en la novela Canción de Tumba de Julián Herbert. Dirección: Belén Aguilar. Con: Lorena Glinz y José Juan Sánchez. Sinopsis: Guadalupe, una antigua trabajadora sexual, lucha contra el cáncer en una cama de hospital. A su lado, su hijo, un artista conflictuado, emprende un viaje a través de la memoria. Un dibujo a mano alzada lleno de ternura y crueldad; un vaivén emocional que despliega la compleja relación entre madre e hijo a través de los años.","Centro Cultural del Bosque,Paseo de la Reforma y Campo Marte",México,Distrito Federal,null,null,19.424004,-99.19482,https://www.ticketmaster.com.mx/flores-negras-del-destino-nos-apartan-mexico-distrito-federal-07-20-2021/event/14005AB88705255E,Arts & Theatre,Theatre,2021-07-20,20:00:00,"Teatro El Galeón, Abraham Oceransky"
México,g5v8zplx6v34w,KovZpZA6Jl7A,Flores negras del destino nos apartan,"Basada en la novela Canción de Tumba de Julián Herbert. Dirección: Belén Aguilar. Con: Lorena Glinz y José Juan Sánchez. Sinopsis: Guadalupe, una antigua trabajadora sexual, lucha contra el cáncer en una cama de hospital. A su lado, su hijo, un artista conflictuado, emprende un viaje a través de la memoria. Un dibujo a mano alzada lleno de ternura y crueldad; un vaivén emocional que despliega la compleja relación entre madre e hijo a través de los años.","Centro Cultural del Bosque,Paseo de la Reforma y Campo Marte",México,Distrito Federal,null,null,19.424004,-99.19482,https://www.ticketmaster.com.mx/flores-negras-del-destino-nos-apartan-mexico-distrito-federal-07-26-2021/event/14005AB887052572,Arts & Theatre,Theatre,2021-07-26,20:00:00,"Teatro El Galeón, Abraham Oceransky"
